{"type":"FeatureCollection","features":[{"type":"Feature","id":"V_TFR_LOC.6/6654","geometry":{"type":"Polygon","coordinates":[[[-120.90829,48.34997],[-120.90714,48.34129],[-120.90374,48.33288],[-120.89821,48.32499],[-120.89072,48.31786],[-120.88148,48.31171],[-120.87078,48.30672],[-120.85894,48.30304],[-120.84633,48.30079],[-120.83333,48.30003],[-120.82032,48.30079],[-120.80771,48.30304],[-120.79588,48.30672],[-120.78518,48.31171],[-120.77594,48.31786],[-120.76844,48.32499],[-120.76291,48.33288],[-120.75952,48.34129],[-120.75837,48.34997],[-120.75949,48.35865],[-120.76287,48.36706],[-120.76838,48.37496],[-120.77587,48.38210],[-120.78511,48.38826],[-120.79582,48.39326],[-120.80767,48.39694],[-120.82030,48.39920],[-120.83333,48.39996],[-120.84636,48.39920],[-120.85899,48.39694],[-120.87084,48.39326],[-120.88155,48.38826],[-120.89079,48.38210],[-120.89828,48.37496],[-120.90379,48.36706],[-120.90716,48.35865],[-120.90829,48.34997]]]},"geometry_name":"SHAPE","properties":{"GID":234257,"CNS_LOCATION_ID":"ZSE","NOTAM_KEY":"6/6654-1-FDC-F","TITLE":"28NM W TWISP, WA, Thursday, October 1, 2026 through Thursday, October 15, 2026 UTC","LAST_MODIFICATION_DATETIME":"202610011551","STATE":"WA","LEGAL":"HAZARDS"}},{"type":"Feature","id":"V_TFR_LOC.6/6665","geometry":{"type":"Polygon","coordinates":[[[-122.49166,41.575],[-122.40833,41.575],[-122.40833,41.64166],[-122.49166,41.64166],[-122.49166,41.575]]]},"geometry_name":"SHAPE","properties":{"GID":234266,"CNS_LOCATION_ID":"ZSE","NOTAM_KEY":"6/6665-1-FDC-F","TITLE":"8NM SE MONTAGUE, CA, Saturday, October 3, 2026 through Monday, October 5, 2026 UTC","LAST_MODIFICATION_DATETIME":"202610011805","STATE":"CA","LEGAL":"HAZARDS"}},{"type":"Feature","id":"V_TFR_LOC.6/6664","geometry":{"type":"Polygon","coordinates":[[[-93.17645,44.95305],[-93.17627,44.95160],[-93.17574,44.95020],[-93.17488,44.94888],[-93.17371,44.94769],[-93.17226,44.94667],[-93.17058,44.94583],[-93.16873,44.94522],[-93.16675,44.94484],[-93.16472,44.94472],[-93.16268,44.94484],[-93.16070,44.94522],[-93.15885,44.94583],[-93.15718,44.94667],[-93.15573,44.94769],[-93.15456,44.94888],[-93.15369,44.95020],[-93.15316,44.95160],[-93.15298,44.95305],[-93.15316,44.95450],[-93.15369,44.95590],[-93.15455,44.95722],[-93.15573,44.95841],[-93.15717,44.95943],[-93.15885,44.96027],[-93.16070,44.96088],[-93.16268,44.96126],[-93.16472,44.96138],[-93.16676,44.96126],[-93.16873,44.96088],[-93.17059,44.96027],[-93.17226,44.95943],[-93.17371,44.95841],[-93.17488,44.95722],[-93.17574,44.95590],[-93.17627,44.95450],[-93.17645,44.95305]]]},"geometry_name":"SHAPE","properties":{"GID":234265,"CNS_LOCATION_ID":"ZMP","NOTAM_KEY":"6/6664-1-FDC-F","TITLE":"ST PAUL, MN, Tuesday, October 6, 2026 through Tuesday, October 6, 2026 Local","LAST_MODIFICATION_DATETIME":"202610011755","STATE":"MN","LEGAL":"SECURITY"}},{"type":"Feature","id":"V_TFR_LOC.6/6656","geometry":{"type":"Polygon","coordinates":[[[-93.38857,45.20138],[-93.38829,45.19907],[-93.38744,45.19682],[-93.38605,45.19472],[-93.38416,45.19281],[-93.38184,45.19117],[-93.37914,45.18984],[-93.37617,45.18886],[-93.37299,45.18825],[-93.36972,45.18805],[-93.36644,45.18825],[-93.36327,45.18886],[-93.36029,45.18984],[-93.35760,45.19117],[-93.35527,45.19281],[-93.35339,45.19472],[-93.35200,45.19682],[-93.35115,45.19907],[-93.35086,45.20138],[-93.35115,45.20370],[-93.35200,45.20594],[-93.35338,45.20805],[-93.35527,45.20995],[-93.35759,45.21160],[-93.36029,45.21293],[-93.36327,45.21391],[-93.36644,45.21451],[-93.36972,45.21472],[-93.37299,45.21451],[-93.37617,45.21391],[-93.37915,45.21293],[-93.38184,45.21160],[-93.38416,45.20995],[-93.38605,45.20805],[-93.38744,45.20594],[-93.38829,45.20370],[-93.38857,45.20138]]]},"geometry_name":"SHAPE","properties":{"GID":234259,"CNS_LOCATION_ID":"ZMP","NOTAM_KEY":"6/6656-1-FDC-F","TITLE":"ANOKA, MN, Monday, October 5, 2026 through Monday, October 19, 2026 Local","LAST_MODIFICATION_DATETIME":"202610011559","STATE":"MN","LEGAL":"SECURITY"}},{"type":"Feature","id":"V_TFR_LOC.6/3002","geometry":{"type":"Polygon","coordinates":[[[-149.34,64.21138],[-149.32792,64.21037],[-149.31309,64.20947],[-149.29814,64.20913],[-149.28318,64.20936],[-149.26832,64.21015],[-149.25361,64.21138],[-149.23361,64.23611],[-149.24289,64.23451],[-149.25252,64.23335],[-149.26234,64.23257],[-149.27229,64.23216],[-149.28228,64.23214],[-149.29223,64.23248],[-149.29861,64.23305],[-149.34,64.21138]]]},"geometry_name":"SHAPE","properties":{"GID":234260,"CNS_LOCATION_ID":"ZAN","NOTAM_KEY":"6/3002-1-FDC-F","TITLE":"Clear, AK","LAST_MODIFICATION_DATETIME":"202607052043","STATE":"AK","LEGAL":"SECURITY"}},{"type":"Feature","id":"V_TFR_LOC.6/3002","geometry":{"type":"Polygon","coordinates":[[[-149.46872,64.28325],[-149.46792,64.27674],[-149.46582,64.27028],[-149.46243,64.26393],[-149.45778,64.25773],[-149.45191,64.25173],[-149.44486,64.24597],[-149.43669,64.24051],[-149.42746,64.23537],[-149.41724,64.23060],[-149.40610,64.22624],[-149.39414,64.22231],[-149.38144,64.21886],[-149.36810,64.21589],[-149.35422,64.21344],[-149.34,64.21138],[-149.29861,64.23305],[-149.30840,64.23388],[-149.31791,64.23521],[-149.32712,64.23690],[-149.33595,64.23893],[-149.34435,64.24129],[-149.35225,64.24395],[-149.35958,64.24691],[-149.36629,64.25013],[-149.37234,64.25359],[-149.37767,64.25727],[-149.38224,64.26113],[-149.38602,64.26516],[-149.38898,64.26931],[-149.39110,64.27356],[-149.39236,64.27787],[-149.39275,64.28222],[-149.39227,64.28656],[-149.39092,64.29087],[-149.38870,64.29511],[-149.38565,64.29925],[-149.38177,64.30326],[-149.37710,64.30710],[-149.37168,64.31076],[-149.36554,64.3142],[-149.35873,64.31739],[-149.35131,64.32031],[-149.34333,64.32293],[-149.33944,64.32416],[-149.34190,64.32986],[-149.34327,64.33563],[-149.34347,64.34142],[-149.34250,64.34721],[-149.34038,64.35293],[-149.33711,64.35855],[-149.33272,64.36403],[-149.32724,64.36932],[-149.32072,64.37438],[-149.31320,64.37917],[-149.30474,64.38367],[-149.29541,64.38783],[-149.28527,64.39161],[-149.27440,64.39501],[-149.26290,64.39797],[-149.25833,64.39888],[-149.28111,64.43583],[-149.28235,64.43527],[-149.29858,64.43148],[-149.31397,64.42709],[-149.32842,64.42214],[-149.34180,64.41666],[-149.35403,64.41069],[-149.36500,64.40429],[-149.37463,64.39749],[-149.38286,64.39036],[-149.38961,64.38294],[-149.39484,64.37530],[-149.39851,64.36749],[-149.40059,64.35957],[-149.40107,64.35160],[-149.40083,64.34361],[-149.40842,64.34077],[-149.41942,64.33632],[-149.42948,64.33147],[-149.43852,64.32626],[-149.44648,64.32073],[-149.45329,64.31491],[-149.45891,64.30886],[-149.46329,64.30263],[-149.46640,64.29625],[-149.46821,64.28977],[-149.46872,64.28325]]]},"geometry_name":"SHAPE","properties":{"GID":234261,"CNS_LOCATION_ID":"ZAN","NOTAM_KEY":"6/3002-1-FDC-F","TITLE":"Clear, AK","LAST_MODIFICATION_DATETIME":"202607052043","STATE":"AK","LEGAL":"SECURITY"}},{"type":"Feature","id":"V_TFR_LOC.6/3002","geometry":{"type":"Polygon","coordinates":[[[-149.28111,64.43583],[-149.25833,64.39888],[-149.24618,64.40132],[-149.23350,64.40320],[-149.22049,64.40459],[-149.20725,64.40548],[-149.19388,64.40587],[-149.18048,64.40575],[-149.16715,64.40513],[-149.15401,64.40401],[-149.14114,64.40239],[-149.12864,64.40029],[-149.11662,64.39773],[-149.10517,64.39473],[-149.09436,64.39130],[-149.08429,64.38748],[-149.07503,64.38329],[-149.06665,64.37877],[-149.05922,64.37395],[-149.05279,64.36886],[-149.04740,64.36356],[-149.04311,64.35807],[-149.03994,64.35243],[-149.03791,64.34670],[-149.03705,64.34092],[-149.03735,64.33512],[-149.03882,64.32936],[-149.04083,64.32472],[-148.98111,64.33916],[-148.98019,64.34551],[-148.97944,64.35347],[-148.98030,64.36143],[-148.98275,64.36933],[-148.98679,64.37711],[-148.99238,64.38470],[-148.99949,64.39206],[-149.00805,64.39912],[-149.01800,64.40582],[-149.02927,64.41213],[-149.04178,64.41799],[-149.05542,64.42335],[-149.07010,64.42817],[-149.08570,64.43242],[-149.10210,64.43607],[-149.11918,64.43909],[-149.13681,64.44144],[-149.15485,64.44312],[-149.17316,64.44412],[-149.19160,64.44442],[-149.21003,64.44402],[-149.22831,64.44292],[-149.24629,64.44114],[-149.26385,64.43869],[-149.28111,64.43583]]]},"geometry_name":"SHAPE","properties":{"GID":234262,"CNS_LOCATION_ID":"ZAN","NOTAM_KEY":"6/3002-1-FDC-F","TITLE":"Clear, AK","LAST_MODIFICATION_DATETIME":"202607052043","STATE":"AK","LEGAL":"SECURITY"}},{"type":"Feature","id":"V_TFR_LOC.6/3002","geometry":{"type":"Polygon","coordinates":[[[-149.39268,64.28373],[-149.39260,64.27939],[-149.39164,64.27506],[-149.38982,64.27078],[-149.38715,64.26659],[-149.38365,64.26252],[-149.37935,64.25860],[-149.37428,64.25485],[-149.36848,64.25131],[-149.36199,64.24800],[-149.35487,64.24495],[-149.34717,64.24218],[-149.33894,64.23972],[-149.33025,64.23757],[-149.32116,64.23576],[-149.31175,64.23430],[-149.30208,64.23321],[-149.29223,64.23248],[-149.28228,64.23214],[-149.27229,64.23216],[-149.26234,64.23257],[-149.25252,64.23335],[-149.24289,64.23451],[-149.23361,64.23611],[-149.19027,64.28888],[-149.04083,64.32472],[-149.04032,64.32580],[-149.03813,64.33152],[-149.03710,64.33730],[-149.03724,64.34309],[-149.03854,64.34886],[-149.04100,64.35456],[-149.04459,64.36014],[-149.04930,64.36557],[-149.05508,64.37080],[-149.06189,64.37579],[-149.06969,64.38050],[-149.07841,64.38490],[-149.08798,64.38896],[-149.09833,64.39263],[-149.10939,64.39590],[-149.12107,64.39875],[-149.13328,64.40113],[-149.14593,64.40305],[-149.15891,64.40449],[-149.17214,64.40542],[-149.18550,64.40586],[-149.19890,64.40578],[-149.21224,64.40520],[-149.22540,64.40412],[-149.23830,64.40255],[-149.25083,64.40049],[-149.26290,64.39797],[-149.27440,64.39501],[-149.28527,64.39161],[-149.29541,64.38783],[-149.30474,64.38367],[-149.31320,64.37917],[-149.32072,64.37438],[-149.32724,64.36932],[-149.33272,64.36403],[-149.33711,64.35855],[-149.34038,64.35293],[-149.34250,64.34721],[-149.34347,64.34142],[-149.34327,64.33563],[-149.34190,64.32986],[-149.33944,64.32416],[-149.34042,64.32378],[-149.34859,64.32126],[-149.35621,64.31844],[-149.36324,64.31534],[-149.36962,64.31198],[-149.37529,64.30840],[-149.38023,64.30462],[-149.38439,64.30066],[-149.38773,64.29657],[-149.39024,64.29236],[-149.39190,64.28807],[-149.39268,64.28373]]]},"geometry_name":"SHAPE","properties":{"GID":234263,"CNS_LOCATION_ID":"ZAN","NOTAM_KEY":"6/3002-1-FDC-F","TITLE":"Clear, AK","LAST_MODIFICATION_DATETIME":"202607052043","STATE":"AK","LEGAL":"SECURITY"}},{"type":"Feature","id":"V_TFR_LOC.6/6672","geometry":{"type":"Polygon","coordinates":[[[-112.09915,46.55833],[-112.09878,46.55543],[-112.09769,46.55263],[-112.09591,46.55000],[-112.09349,46.54762],[-112.09052,46.54556],[-112.08707,46.54390],[-112.08325,46.54267],[-112.07919,46.54192],[-112.075,46.54167],[-112.07080,46.54192],[-112.06674,46.54267],[-112.06292,46.54390],[-112.05947,46.54556],[-112.05650,46.54762],[-112.05408,46.55000],[-112.05230,46.55263],[-112.05121,46.55543],[-112.05084,46.55833],[-112.05121,46.56122],[-112.05230,46.56402],[-112.05408,46.56666],[-112.05649,46.56904],[-112.05947,46.57109],[-112.06292,46.57276],[-112.06673,46.57398],[-112.07080,46.57474],[-112.075,46.57499],[-112.07919,46.57474],[-112.08326,46.57398],[-112.08707,46.57276],[-112.09052,46.57109],[-112.09350,46.56904],[-112.09591,46.56666],[-112.09769,46.56402],[-112.09878,46.56122],[-112.09915,46.55833]]]},"geometry_name":"SHAPE","properties":{"GID":234268,"CNS_LOCATION_ID":"ZLC","NOTAM_KEY":"6/6672-1-FDC-F","TITLE":"4NM SW HELENA, MT, Friday, October 2, 2026 through Sunday, October 4, 2026 UTC","LAST_MODIFICATION_DATETIME":"202610011841","STATE":"MT","LEGAL":"HAZARDS"}},{"type":"Feature","id":"V_TFR_LOC.6/6783","geometry":{"type":"Polygon","coordinates":[[[-83.76275,32.44305],[-83.76245,32.44015],[-83.76156,32.43734],[-83.76011,32.43470],[-83.75814,32.43231],[-83.75571,32.43026],[-83.75290,32.42859],[-83.74979,32.42736],[-83.74647,32.42660],[-83.74305,32.42635],[-83.73963,32.42660],[-83.73632,32.42736],[-83.73320,32.42859],[-83.73039,32.43026],[-83.72797,32.43231],[-83.72600,32.43470],[-83.72454,32.43734],[-83.72366,32.44015],[-83.72336,32.44305],[-83.72365,32.44595],[-83.72454,32.44876],[-83.72599,32.45140],[-83.72796,32.45378],[-83.73039,32.45584],[-83.73320,32.45751],[-83.73631,32.45874],[-83.73963,32.45950],[-83.74305,32.45975],[-83.74647,32.45950],[-83.74979,32.45874],[-83.75290,32.45751],[-83.75571,32.45584],[-83.75814,32.45378],[-83.76011,32.45140],[-83.76156,32.44876],[-83.76245,32.44595],[-83.76275,32.44305]]]},"geometry_name":"SHAPE","properties":{"GID":234293,"CNS_LOCATION_ID":"ZTL","NOTAM_KEY":"6/6783-1-FDC-F","TITLE":"Perry, GA, Friday, October 9, 2026 through Monday, October 19, 2026 UTC","LAST_MODIFICATION_DATETIME":"202610021209","STATE":"GA","LEGAL":"UAS PUBLIC GATHERING"}},{"type":"Feature","id":"V_TFR_LOC.6/6843","geometry":{"type":"Polygon","coordinates":[[[-87.61830,37.98055],[-87.61798,37.97765],[-87.61702,37.97484],[-87.61547,37.97221],[-87.61336,37.96982],[-87.61076,37.96777],[-87.60776,37.96610],[-87.60443,37.96487],[-87.60088,37.96412],[-87.59722,37.96387],[-87.59356,37.96412],[-87.59001,37.96487],[-87.58668,37.96610],[-87.58367,37.96777],[-87.58107,37.96982],[-87.57896,37.97221],[-87.57741,37.97484],[-87.57646,37.97765],[-87.57614,37.98055],[-87.57646,37.98345],[-87.57741,37.98626],[-87.57896,37.98889],[-87.58107,37.99127],[-87.58366,37.99333],[-87.58668,37.99500],[-87.59001,37.99623],[-87.59356,37.99698],[-87.59722,37.99724],[-87.60088,37.99698],[-87.60443,37.99623],[-87.60776,37.99500],[-87.61077,37.99333],[-87.61337,37.99127],[-87.61548,37.98889],[-87.61703,37.98626],[-87.61798,37.98345],[-87.61830,37.98055]]]},"geometry_name":"SHAPE","properties":{"GID":234294,"CNS_LOCATION_ID":"ZID","NOTAM_KEY":"6/6843-1-FDC-F","TITLE":"Evansville, IN, Monday, October 5, 2026 through Saturday, October 10, 2026 Local","LAST_MODIFICATION_DATETIME":"202610021325","STATE":"IN","LEGAL":"SECURITY"}},{"type":"Feature","id":"V_TFR_LOC.6/6848","geometry":{"type":"Polygon","coordinates":[[[-93.27735,47.35387],[-93.27660,47.34809],[-93.27439,47.34248],[-93.27077,47.33722],[-93.26587,47.33246],[-93.25983,47.32836],[-93.25283,47.32503],[-93.24509,47.32258],[-93.23684,47.32107],[-93.22833,47.32057],[-93.21982,47.32107],[-93.21157,47.32258],[-93.20383,47.32503],[-93.19683,47.32836],[-93.19079,47.33246],[-93.18588,47.33722],[-93.18227,47.34248],[-93.18005,47.34809],[-93.17930,47.35387],[-93.18004,47.35966],[-93.18225,47.36527],[-93.18586,47.37053],[-93.19076,47.37529],[-93.19680,47.37940],[-93.20380,47.38273],[-93.21155,47.38519],[-93.21981,47.38669],[-93.22833,47.38720],[-93.23685,47.38669],[-93.24511,47.38519],[-93.25285,47.38273],[-93.25986,47.37940],[-93.26590,47.37529],[-93.27080,47.37053],[-93.27441,47.36527],[-93.27661,47.35966],[-93.27735,47.35387]]]},"geometry_name":"SHAPE","properties":{"GID":234295,"CNS_LOCATION_ID":"ZMP","NOTAM_KEY":"6/6848-1-FDC-F","TITLE":"NASHWAUK, MN, Tuesday, October 6, 2026 UTC","LAST_MODIFICATION_DATETIME":"202610021439","STATE":"MN","LEGAL":"HAZARDS"}},{"type":"Feature","id":"V_TFR_LOC.6/6732","geometry":{"type":"Polygon","coordinates":[[[-86.80133,33.32498],[-86.80042,33.31628],[-86.79772,33.30785],[-86.79332,33.29994],[-86.78736,33.29279],[-86.78000,33.28661],[-86.77148,33.28161],[-86.76206,33.27792],[-86.75202,33.27566],[-86.74166,33.27490],[-86.73131,33.27566],[-86.72126,33.27792],[-86.71184,33.28161],[-86.70332,33.28661],[-86.69597,33.29279],[-86.69000,33.29994],[-86.68560,33.30785],[-86.68290,33.31628],[-86.68199,33.32498],[-86.68289,33.33368],[-86.68558,33.34212],[-86.68997,33.35003],[-86.69593,33.35719],[-86.70329,33.36336],[-86.71181,33.36837],[-86.72124,33.37207],[-86.73129,33.37433],[-86.74166,33.37509],[-86.75203,33.37433],[-86.76208,33.37207],[-86.77151,33.36837],[-86.78003,33.36336],[-86.78739,33.35719],[-86.79335,33.35003],[-86.79775,33.34212],[-86.80043,33.33368],[-86.80133,33.32498]]]},"geometry_name":"SHAPE","properties":{"GID":234271,"CNS_LOCATION_ID":"ZTL","NOTAM_KEY":"6/6732-1-FDC-F","TITLE":"4NM NE PELHAM, AL, Thursday, October 1, 2026 through Tuesday, October 6, 2026 UTC","LAST_MODIFICATION_DATETIME":"202610012112","STATE":"AL","LEGAL":"HAZARDS"}},{"type":"Feature","id":"V_TFR_LOC.6/6904","geometry":{"type":"Polygon","coordinates":[[[-95.50162,32.35382],[-95.50011,32.33932],[-95.49566,32.32526],[-95.48840,32.31208],[-95.47856,32.30016],[-95.46644,32.28987],[-95.45239,32.28153],[-95.43686,32.27538],[-95.42031,32.27162],[-95.40325,32.27035],[-95.38618,32.27162],[-95.36963,32.27538],[-95.35410,32.28153],[-95.34005,32.28987],[-95.32793,32.30016],[-95.31809,32.31208],[-95.31083,32.32526],[-95.30638,32.33932],[-95.30487,32.35382],[-95.30635,32.36832],[-95.31077,32.38238],[-95.31801,32.39558],[-95.32784,32.40751],[-95.33997,32.41781],[-95.35402,32.42616],[-95.36957,32.43232],[-95.38615,32.43609],[-95.40325,32.43736],[-95.42034,32.43609],[-95.43692,32.43232],[-95.45247,32.42616],[-95.46652,32.41781],[-95.47865,32.40751],[-95.48848,32.39558],[-95.49572,32.38238],[-95.50014,32.36832],[-95.50162,32.35382]]]},"geometry_name":"SHAPE","properties":{"GID":234312,"CNS_LOCATION_ID":"ZFW","NOTAM_KEY":"6/6904-1-FDC-F","TITLE":"Tyler, TX, Friday, October 9, 2026 through Sunday, October 11, 2026 UTC","LAST_MODIFICATION_DATETIME":"202610021734","STATE":"TX","LEGAL":"AIR SHOWS/SPORTS"}},{"type":"Feature","id":"V_TFR_LOC.6/6741","geometry":{"type":"Polygon","coordinates":[[[-122.53183,37.81661],[-122.53021,37.80213],[-122.52545,37.78809],[-122.51769,37.77491],[-122.50717,37.76301],[-122.49420,37.75273],[-122.47919,37.74440],[-122.46259,37.73826],[-122.44490,37.73450],[-122.42666,37.73323],[-122.40842,37.73450],[-122.39073,37.73826],[-122.37413,37.74440],[-122.35912,37.75273],[-122.34616,37.76301],[-122.33564,37.77491],[-122.32788,37.78809],[-122.32311,37.80213],[-122.3215,37.81661],[-122.32307,37.83110],[-122.32780,37.84515],[-122.33553,37.85834],[-122.34604,37.87026],[-122.35900,37.88055],[-122.37403,37.88890],[-122.39065,37.89505],[-122.40838,37.89882],[-122.42666,37.90009],[-122.44494,37.89882],[-122.46267,37.89505],[-122.47930,37.88890],[-122.49432,37.88055],[-122.50728,37.87026],[-122.51779,37.85834],[-122.52552,37.84515],[-122.53025,37.83110],[-122.53183,37.81661]]]},"geometry_name":"SHAPE","properties":{"GID":234273,"CNS_LOCATION_ID":"ZOA","NOTAM_KEY":"6/6741-1-FDC-F","TITLE":"SAN FRANCISCO, CA, Thursday, October 8, 2026 through Sunday, October 11, 2026 Local","LAST_MODIFICATION_DATETIME":"202610012241","STATE":"CA","LEGAL":"AIR SHOWS/SPORTS"}},{"type":"Feature","id":"V_TFR_LOC.6/6740","geometry":{"type":"Polygon","coordinates":[[[-121.44655,38.55390],[-121.44425,38.53362],[-121.43751,38.51397],[-121.42652,38.49553],[-121.41164,38.47887],[-121.39331,38.46449],[-121.37209,38.45283],[-121.34862,38.44424],[-121.32361,38.43898],[-121.29783,38.43721],[-121.27204,38.43898],[-121.24704,38.44424],[-121.22357,38.45283],[-121.20235,38.46449],[-121.18402,38.47887],[-121.16913,38.49553],[-121.15815,38.51397],[-121.15140,38.53362],[-121.14910,38.55390],[-121.15132,38.57418],[-121.15800,38.59385],[-121.16892,38.61232],[-121.18378,38.62901],[-121.20211,38.64342],[-121.22336,38.65511],[-121.24688,38.66373],[-121.27196,38.66900],[-121.29783,38.67078],[-121.32370,38.66900],[-121.34877,38.66373],[-121.37230,38.65511],[-121.39355,38.64342],[-121.41188,38.62901],[-121.42673,38.61232],[-121.43766,38.59385],[-121.44433,38.57418],[-121.44655,38.55390]]]},"geometry_name":"SHAPE","properties":{"GID":234272,"CNS_LOCATION_ID":"ZOA","NOTAM_KEY":"6/6740-1-FDC-F","TITLE":"SACRAMENTO, CA, Thursday, October 8, 2026 through Sunday, October 11, 2026 Local","LAST_MODIFICATION_DATETIME":"202610012240","STATE":"CA","LEGAL":"AIR SHOWS/SPORTS"}},{"type":"Feature","id":"V_TFR_LOC.6/6744","geometry":{"type":"Polygon","coordinates":[[[-112.12413,46.50833],[-112.12376,46.50543],[-112.12267,46.50263],[-112.12089,46.50000],[-112.11848,46.49762],[-112.11550,46.49556],[-112.11206,46.49390],[-112.10825,46.49267],[-112.10418,46.49192],[-112.1,46.49167],[-112.09581,46.49192],[-112.09174,46.49267],[-112.08793,46.49390],[-112.08449,46.49556],[-112.08151,46.49762],[-112.07910,46.50000],[-112.07732,46.50263],[-112.07623,46.50543],[-112.07586,46.50833],[-112.07623,46.51122],[-112.07732,46.51402],[-112.07909,46.51666],[-112.08151,46.51904],[-112.08448,46.52109],[-112.08793,46.52276],[-112.09174,46.52398],[-112.09580,46.52474],[-112.1,46.52499],[-112.10419,46.52474],[-112.10825,46.52398],[-112.11206,46.52276],[-112.11551,46.52109],[-112.11848,46.51904],[-112.12090,46.51666],[-112.12267,46.51402],[-112.12376,46.51122],[-112.12413,46.50833]]]},"geometry_name":"SHAPE","properties":{"GID":234278,"CNS_LOCATION_ID":"ZLC","NOTAM_KEY":"6/6744-1-FDC-F","TITLE":"8NM SW HELENA, MT, Friday, October 2, 2026 through Tuesday, October 6, 2026 UTC","LAST_MODIFICATION_DATETIME":"202610012329","STATE":"MT","LEGAL":"HAZARDS"}},{"type":"Feature","id":"V_TFR_LOC.6/6932","geometry":{"type":"Polygon","coordinates":[[[-87.50221,37.35759],[-87.50060,37.34310],[-87.49587,37.32906],[-87.48816,37.31588],[-87.47770,37.30398],[-87.46482,37.29370],[-87.44990,37.28536],[-87.43340,37.27922],[-87.41582,37.27546],[-87.39769,37.27420],[-87.37956,37.27546],[-87.36198,37.27922],[-87.34548,37.28536],[-87.33056,37.29370],[-87.31768,37.30398],[-87.30722,37.31588],[-87.29951,37.32906],[-87.29477,37.34310],[-87.29317,37.35759],[-87.29473,37.37208],[-87.29943,37.38613],[-87.30712,37.39932],[-87.31756,37.41124],[-87.33045,37.42153],[-87.34538,37.42988],[-87.36190,37.43603],[-87.37952,37.43980],[-87.39769,37.44107],[-87.41586,37.43980],[-87.43348,37.43603],[-87.45000,37.42988],[-87.46493,37.42153],[-87.47782,37.41124],[-87.48826,37.39932],[-87.49595,37.38613],[-87.50064,37.37208],[-87.50221,37.35759]]]},"geometry_name":"SHAPE","properties":{"GID":234315,"CNS_LOCATION_ID":"ZID","NOTAM_KEY":"6/6932-1-FDC-F","TITLE":"Madisonville, KY, Friday, October 9, 2026 through Saturday, October 10, 2026 UTC","LAST_MODIFICATION_DATETIME":"202610022003","STATE":"KY","LEGAL":"AIR SHOWS/SPORTS"}},{"type":"Feature","id":"V_TFR_LOC.6/5941","geometry":{"type":"Polygon","coordinates":[[[-112.29184,33.52777],[-112.29139,33.52342],[-112.29004,33.51920],[-112.28783,33.51525],[-112.28484,33.51167],[-112.28116,33.50858],[-112.27689,33.50608],[-112.27216,33.50424],[-112.26713,33.50311],[-112.26194,33.50273],[-112.25675,33.50311],[-112.25171,33.50424],[-112.24699,33.50608],[-112.24272,33.50858],[-112.23903,33.51167],[-112.23604,33.51525],[-112.23384,33.51920],[-112.23249,33.52342],[-112.23203,33.52777],[-112.23249,33.53212],[-112.23383,33.53634],[-112.23604,33.54029],[-112.23903,33.54387],[-112.24271,33.54696],[-112.24698,33.54946],[-112.25171,33.55131],[-112.25674,33.55244],[-112.26194,33.55282],[-112.26713,33.55244],[-112.27217,33.55131],[-112.27690,33.54946],[-112.28117,33.54696],[-112.28485,33.54387],[-112.28784,33.54029],[-112.29004,33.53634],[-112.29139,33.53212],[-112.29184,33.52777]]]},"geometry_name":"SHAPE","properties":{"GID":234281,"CNS_LOCATION_ID":"ZAB","NOTAM_KEY":"6/5941-1-FDC-F","TITLE":"Glendale, AZ, Saturday, October 3, 2026 through Sunday, October 4, 2026 UTC","LAST_MODIFICATION_DATETIME":"202609281939","STATE":"AZ","LEGAL":"UAS PUBLIC GATHERING"}},{"type":"Feature","id":"V_TFR_LOC.6/6747","geometry":{"type":"Polygon","coordinates":[[[-110.50555,31.58694],[-110.19333,31.56805],[-110.19337,31.57954],[-110.19417,31.59117],[-110.19614,31.60271],[-110.19928,31.61405],[-110.20357,31.62512],[-110.20897,31.63582],[-110.21544,31.64608],[-110.22293,31.65582],[-110.23138,31.66496],[-110.24074,31.67343],[-110.25093,31.68118],[-110.26187,31.68813],[-110.27348,31.69425],[-110.28566,31.69947],[-110.29834,31.70376],[-110.31141,31.70709],[-110.32476,31.70944],[-110.33831,31.71078],[-110.35194,31.71110],[-110.36555,31.71040],[-110.37904,31.70869],[-110.39230,31.70599],[-110.40524,31.70230],[-110.41775,31.69766],[-110.42973,31.69211],[-110.44111,31.68568],[-110.45178,31.67843],[-110.46167,31.67041],[-110.47070,31.66168],[-110.47881,31.65231],[-110.48594,31.64237],[-110.49202,31.63194],[-110.49701,31.62110],[-110.50088,31.60992],[-110.50360,31.59850],[-110.50555,31.58694]]]},"geometry_name":"SHAPE","properties":{"GID":234282,"CNS_LOCATION_ID":"ZAB","NOTAM_KEY":"6/6747-1-FDC-F","TITLE":"Libby AAF, AZ, Friday, October 2, 2026 through Sunday, October 4, 2026 Local","LAST_MODIFICATION_DATETIME":"202610020038","STATE":"AZ","LEGAL":"SECURITY"}},{"type":"Feature","id":"V_TFR_LOC.6/6748","geometry":{"type":"Polygon","coordinates":[[[-118.68793,44.11665],[-118.68723,44.11086],[-118.68513,44.10525],[-118.68172,44.09999],[-118.67710,44.09523],[-118.67139,44.09112],[-118.66479,44.08779],[-118.65748,44.08534],[-118.64969,44.08383],[-118.64166,44.08333],[-118.63363,44.08383],[-118.62584,44.08534],[-118.61854,44.08779],[-118.61193,44.09112],[-118.60623,44.09523],[-118.60160,44.09999],[-118.59819,44.10525],[-118.59610,44.11086],[-118.59539,44.11665],[-118.59609,44.12244],[-118.59817,44.12805],[-118.60158,44.13332],[-118.60620,44.13808],[-118.61191,44.14219],[-118.61851,44.14553],[-118.62583,44.14799],[-118.63362,44.14949],[-118.64166,44.15000],[-118.64970,44.14949],[-118.65750,44.14799],[-118.66481,44.14553],[-118.67142,44.14219],[-118.67712,44.13808],[-118.68175,44.13332],[-118.68515,44.12805],[-118.68723,44.12244],[-118.68793,44.11665]]]},"geometry_name":"SHAPE","properties":{"GID":234283,"CNS_LOCATION_ID":"ZLC","NOTAM_KEY":"6/6748-1-FDC-F","TITLE":"20 NM S PRAIRIE CITY, OR, Monday, October 5, 2026 through Thursday, October 8, 2026 UTC","LAST_MODIFICATION_DATETIME":"202610020052","STATE":"OR","LEGAL":"HAZARDS"}},{"type":"Feature","id":"V_TFR_LOC.6/4240","geometry":{"type":"Polygon","coordinates":[[[-100.47335,31.27968],[-100.47186,31.26518],[-100.46746,31.25112],[-100.46028,31.23793],[-100.45056,31.22601],[-100.43857,31.21572],[-100.42469,31.20738],[-100.40934,31.20123],[-100.39298,31.19747],[-100.37611,31.19620],[-100.35923,31.19747],[-100.34287,31.20123],[-100.32752,31.20738],[-100.31364,31.21572],[-100.30166,31.22601],[-100.29193,31.23793],[-100.28475,31.25112],[-100.28035,31.26518],[-100.27886,31.27968],[-100.28032,31.29418],[-100.28470,31.30825],[-100.29185,31.32145],[-100.30157,31.33338],[-100.31356,31.34368],[-100.32745,31.35204],[-100.34282,31.35819],[-100.35921,31.36196],[-100.37611,31.36323],[-100.39301,31.36196],[-100.40939,31.35819],[-100.42477,31.35204],[-100.43866,31.34368],[-100.45064,31.33338],[-100.46036,31.32145],[-100.46751,31.30825],[-100.47189,31.29418],[-100.47335,31.27968]]]},"geometry_name":"SHAPE","properties":{"GID":234292,"CNS_LOCATION_ID":"ZFW","NOTAM_KEY":"6/4240-1-FDC-F","TITLE":"SAN ANGELO, TX, Sunday, March 8, 2026 through Sunday, November 1, 2026 Local","LAST_MODIFICATION_DATETIME":"202603052027","STATE":"TX","LEGAL":"SECURITY"}},{"type":"Feature","id":"V_TFR_LOC.6/6935","geometry":{"type":"Polygon","coordinates":[[[-93.11645,44.95194],[-93.11627,44.95049],[-93.11574,44.94909],[-93.11488,44.94777],[-93.11371,44.94658],[-93.11226,44.94556],[-93.11058,44.94472],[-93.10873,44.94411],[-93.10675,44.94373],[-93.10472,44.94361],[-93.10268,44.94373],[-93.10070,44.94411],[-93.09885,44.94472],[-93.09718,44.94556],[-93.09573,44.94658],[-93.09456,44.94777],[-93.09369,44.94909],[-93.09316,44.95049],[-93.09298,44.95194],[-93.09316,44.95339],[-93.09369,44.95479],[-93.09455,44.95611],[-93.09573,44.95730],[-93.09717,44.95832],[-93.09885,44.95916],[-93.10070,44.95977],[-93.10268,44.96015],[-93.10472,44.96027],[-93.10676,44.96015],[-93.10873,44.95977],[-93.11059,44.95916],[-93.11226,44.95832],[-93.11371,44.95730],[-93.11488,44.95611],[-93.11574,44.95479],[-93.11627,44.95339],[-93.11645,44.95194]]]},"geometry_name":"SHAPE","properties":{"GID":234317,"CNS_LOCATION_ID":"ZMP","NOTAM_KEY":"6/6935-1-FDC-F","TITLE":"ST PAUL, MN, Sunday, October 4, 2026 Local","LAST_MODIFICATION_DATETIME":"202610022055","STATE":"MN","LEGAL":"SECURITY"}},{"type":"Feature","id":"V_TFR_LOC.6/6655","geometry":{"type":"Polygon","coordinates":[[[-77.43170,39.05911],[-77.43006,39.04463],[-77.42521,39.03059],[-77.41731,39.01742],[-77.40661,39.00552],[-77.39342,38.99524],[-77.37816,38.98691],[-77.36127,38.98077],[-77.34327,38.97702],[-77.32472,38.97575],[-77.30616,38.97702],[-77.28817,38.98077],[-77.27128,38.98691],[-77.25601,38.99524],[-77.24282,39.00552],[-77.23212,39.01742],[-77.22422,39.03059],[-77.21938,39.04463],[-77.21773,39.05911],[-77.21934,39.07360],[-77.22414,39.08765],[-77.23201,39.10083],[-77.24270,39.11275],[-77.25589,39.12304],[-77.27117,39.13138],[-77.28809,39.13754],[-77.30612,39.14130],[-77.32472,39.14257],[-77.34332,39.14130],[-77.36135,39.13754],[-77.37826,39.13138],[-77.39355,39.12304],[-77.40673,39.11275],[-77.41742,39.10083],[-77.42529,39.08765],[-77.43010,39.07360],[-77.43170,39.05911]]]},"geometry_name":"SHAPE","properties":{"GID":234332,"CNS_LOCATION_ID":"ZDC","NOTAM_KEY":"6/6655-1-FDC-F","TITLE":"Sterling, VA, Sunday, October 4, 2026 Local","LAST_MODIFICATION_DATETIME":"202610011558","STATE":"VA","LEGAL":"VIP"}},{"type":"Feature","id":"V_TFR_LOC.6/6933","geometry":{"type":"Polygon","coordinates":[[[-120.09104,39.53328],[-120.08938,39.51880],[-120.08450,39.50476],[-120.07655,39.49159],[-120.06577,39.47969],[-120.05250,39.46942],[-120.03713,39.46109],[-120.02013,39.45495],[-120.00201,39.45119],[-119.98333,39.44992],[-119.96465,39.45119],[-119.94653,39.45495],[-119.92953,39.46109],[-119.91416,39.46942],[-119.90088,39.47969],[-119.89011,39.49159],[-119.88216,39.50476],[-119.87728,39.51880],[-119.87562,39.53328],[-119.87723,39.54776],[-119.88207,39.56181],[-119.88999,39.57499],[-119.90075,39.58691],[-119.91403,39.59720],[-119.92942,39.60555],[-119.94645,39.61170],[-119.96460,39.61546],[-119.98333,39.61673],[-120.00205,39.61546],[-120.02021,39.61170],[-120.03724,39.60555],[-120.05263,39.59720],[-120.06590,39.58691],[-120.07666,39.57499],[-120.08458,39.56181],[-120.08942,39.54776],[-120.09104,39.53328]]]},"geometry_name":"SHAPE","properties":{"GID":234316,"CNS_LOCATION_ID":"ZOA","NOTAM_KEY":"6/6933-1-FDC-F","TITLE":"12NM W RENO, NV, Friday, October 2, 2026 through Saturday, October 3, 2026 UTC","LAST_MODIFICATION_DATETIME":"202610022036","STATE":"NV","LEGAL":"HAZARDS"}},{"type":"Feature","id":"V_TFR_LOC.6/6947","geometry":{"type":"Polygon","coordinates":[[[-121.81666,36.29166],[-121.80833,36.25833],[-121.7,36.175],[-121.59166,36.21666],[-121.66666,36.4],[-121.81666,36.29166]]]},"geometry_name":"SHAPE","properties":{"GID":234352,"CNS_LOCATION_ID":"ZOA","NOTAM_KEY":"6/6947-1-FDC-F","TITLE":"24NM SE MONTEREY, CA, Saturday, October 3, 2026 through Monday, October 12, 2026 UTC","LAST_MODIFICATION_DATETIME":"202610030323","STATE":"CA","LEGAL":"HAZARDS"}},{"type":"Feature","id":"V_TFR_LOC.5/6914","geometry":{"type":"Polygon","coordinates":[[[-97.18212,26.07194],[-97.18183,26.06904],[-97.18100,26.06622],[-97.17963,26.06358],[-97.17778,26.06119],[-97.17550,26.05913],[-97.17286,26.05746],[-97.16994,26.05623],[-97.16682,26.05548],[-97.16361,26.05522],[-97.16039,26.05548],[-97.15728,26.05623],[-97.15435,26.05746],[-97.15171,26.05913],[-97.14943,26.06119],[-97.14758,26.06358],[-97.14621,26.06622],[-97.14538,26.06904],[-97.14510,26.07194],[-97.14538,26.07484],[-97.14621,26.07766],[-97.14758,26.08030],[-97.14943,26.08268],[-97.15171,26.08474],[-97.15435,26.08642],[-97.15727,26.08765],[-97.16039,26.08840],[-97.16361,26.08866],[-97.16682,26.08840],[-97.16994,26.08765],[-97.17286,26.08642],[-97.17551,26.08474],[-97.17779,26.08268],[-97.17964,26.08030],[-97.18100,26.07766],[-97.18183,26.07484],[-97.18212,26.07194]]]},"geometry_name":"SHAPE","properties":{"GID":234353,"CNS_LOCATION_ID":"ZHU","NOTAM_KEY":"5/6914-1-FDC-F","TITLE":"South Padre Island, TX, Tuesday, May 6, 2025 Local","LAST_MODIFICATION_DATETIME":"202505062316","STATE":"TX","LEGAL":"SECURITY"}},{"type":"Feature","id":"V_TFR_LOC.6/7020","geometry":{"type":"Polygon","coordinates":[[[-98.36317,40.97971],[-98.36250,40.97392],[-98.36051,40.96830],[-98.35727,40.96303],[-98.35287,40.95827],[-98.34744,40.95416],[-98.34116,40.95083],[-98.33421,40.94837],[-98.32680,40.94687],[-98.31916,40.94636],[-98.31152,40.94687],[-98.30412,40.94837],[-98.29717,40.95083],[-98.29088,40.95416],[-98.28546,40.95827],[-98.28106,40.96303],[-98.27781,40.96830],[-98.27582,40.97392],[-98.27515,40.97971],[-98.27582,40.98550],[-98.27780,40.99112],[-98.28104,40.99639],[-98.28544,41.00115],[-98.29086,41.00526],[-98.29715,41.00860],[-98.30410,41.01106],[-98.31152,41.01256],[-98.31916,41.01307],[-98.32681,41.01256],[-98.33422,41.01106],[-98.34118,41.00860],[-98.34746,41.00526],[-98.35289,41.00115],[-98.35729,40.99639],[-98.36053,40.99112],[-98.36251,40.98550],[-98.36317,40.97971]]]},"geometry_name":"SHAPE","properties":{"GID":234354,"CNS_LOCATION_ID":"ZMP","NOTAM_KEY":"6/7020-1-FDC-F","TITLE":"Grand Island, NE, Monday, October 5, 2026 through Monday, October 5, 2026 Local","LAST_MODIFICATION_DATETIME":"202610031403","STATE":"NE","LEGAL":"SECURITY"}},{"type":"Feature","id":"V_TFR_LOC.6/6513","geometry":{"type":"Polygon","coordinates":[[[-84.25970,39.90360],[-84.25904,39.89781],[-84.25708,39.89219],[-84.25389,39.88692],[-84.24955,39.88216],[-84.24422,39.87805],[-84.23803,39.87471],[-84.23119,39.87226],[-84.22390,39.87075],[-84.21638,39.87025],[-84.20887,39.87075],[-84.20158,39.87226],[-84.19474,39.87471],[-84.18855,39.87805],[-84.18321,39.88216],[-84.17888,39.88692],[-84.17569,39.89219],[-84.17373,39.89781],[-84.17307,39.90360],[-84.17372,39.90939],[-84.17567,39.91501],[-84.17886,39.92028],[-84.18319,39.92504],[-84.18853,39.92916],[-84.19472,39.93249],[-84.20156,39.93495],[-84.20886,39.93646],[-84.21638,39.93697],[-84.22391,39.93646],[-84.23121,39.93495],[-84.23805,39.93249],[-84.24424,39.92916],[-84.24958,39.92504],[-84.25390,39.92028],[-84.25709,39.91501],[-84.25904,39.90939],[-84.25970,39.90360]]]},"geometry_name":"SHAPE","properties":{"GID":234355,"CNS_LOCATION_ID":"ZID","NOTAM_KEY":"6/6513-1-FDC-F","TITLE":"Dayton, OH, Saturday, October 3, 2026 through Saturday, October 3, 2026 Local","LAST_MODIFICATION_DATETIME":"202610010023","STATE":"OH","LEGAL":"SECURITY"}},{"type":"Feature","id":"V_TFR_LOC.6/7029","geometry":{"type":"Polygon","coordinates":[[[-112.09915,46.55833],[-112.09878,46.55543],[-112.09769,46.55263],[-112.09591,46.55000],[-112.09349,46.54762],[-112.09052,46.54556],[-112.08707,46.54390],[-112.08325,46.54267],[-112.07919,46.54192],[-112.075,46.54167],[-112.07080,46.54192],[-112.06674,46.54267],[-112.06292,46.54390],[-112.05947,46.54556],[-112.05650,46.54762],[-112.05408,46.55000],[-112.05230,46.55263],[-112.05121,46.55543],[-112.05084,46.55833],[-112.05121,46.56122],[-112.05230,46.56402],[-112.05408,46.56666],[-112.05649,46.56904],[-112.05947,46.57109],[-112.06292,46.57276],[-112.06673,46.57398],[-112.07080,46.57474],[-112.075,46.57499],[-112.07919,46.57474],[-112.08326,46.57398],[-112.08707,46.57276],[-112.09052,46.57109],[-112.09350,46.56904],[-112.09591,46.56666],[-112.09769,46.56402],[-112.09878,46.56122],[-112.09915,46.55833]]]},"geometry_name":"SHAPE","properties":{"GID":234356,"CNS_LOCATION_ID":"ZLC","NOTAM_KEY":"6/7029-1-FDC-F","TITLE":"4NM SW HELENA, MT, Sunday, October 4, 2026 through Tuesday, October 6, 2026 UTC","LAST_MODIFICATION_DATETIME":"202610031722","STATE":"MT","LEGAL":"HAZARDS"}},{"type":"Feature","id":"V_TFR_LOC.5/3679","geometry":{"type":"Polygon","coordinates":[[[-97.20207,25.99721],[-97.20137,25.98995],[-97.19928,25.98292],[-97.19587,25.97632],[-97.19125,25.97035],[-97.18555,25.96520],[-97.17894,25.96102],[-97.17164,25.95795],[-97.16386,25.95606],[-97.15583,25.95543],[-97.14780,25.95606],[-97.14002,25.95795],[-97.13271,25.96102],[-97.12611,25.96520],[-97.12041,25.97035],[-97.11579,25.97632],[-97.11238,25.98292],[-97.11029,25.98995],[-97.10958,25.99721],[-97.11028,26.00447],[-97.11237,26.01150],[-97.11577,26.01811],[-97.12039,26.02408],[-97.12609,26.02923],[-97.13270,26.03341],[-97.14001,26.03649],[-97.14780,26.03837],[-97.15583,26.03901],[-97.16386,26.03837],[-97.17165,26.03649],[-97.17896,26.03341],[-97.18556,26.02923],[-97.19126,26.02408],[-97.19588,26.01811],[-97.19929,26.01150],[-97.20137,26.00447],[-97.20207,25.99721]]]},"geometry_name":"SHAPE","properties":{"GID":234242,"CNS_LOCATION_ID":"ZHU","NOTAM_KEY":"5/3679-1-FDC-F","TITLE":"Brownsville, TX, Thursday, January 1, 2026 through Friday, January 1, 2027 Local","LAST_MODIFICATION_DATETIME":"202512301338","STATE":"TX","LEGAL":"SECURITY"}},{"type":"Feature","id":"V_TFR_LOC.5/3678","geometry":{"type":"Polygon","coordinates":[[[-97.27861,25.97555],[-97.27777,25.94555],[-97.15777,25.95555],[-97.16972,25.95777],[-97.18083,25.96277],[-97.19111,25.97083],[-97.19694,25.97861],[-97.19638,25.98972],[-97.20111,25.98972],[-97.27861,25.97555]]]},"geometry_name":"SHAPE","properties":{"GID":234247,"CNS_LOCATION_ID":"ZHU","NOTAM_KEY":"5/3678-1-FDC-F","TITLE":"Brownsville, TX, Thursday, January 1, 2026 through Friday, January 1, 2027 Local","LAST_MODIFICATION_DATETIME":"202512301336","STATE":"TX","LEGAL":"SECURITY"}},{"type":"Feature","id":"V_TFR_LOC.6/6191","geometry":{"type":"Polygon","coordinates":[[[-106.67801,35.19663],[-106.67676,35.18504],[-106.67308,35.17380],[-106.66708,35.16325],[-106.65894,35.15373],[-106.64892,35.14550],[-106.63731,35.13883],[-106.62446,35.13391],[-106.61078,35.13090],[-106.59666,35.12989],[-106.58255,35.13090],[-106.56886,35.13391],[-106.55602,35.13883],[-106.54441,35.14550],[-106.53438,35.15373],[-106.52624,35.16325],[-106.52024,35.17380],[-106.51656,35.18504],[-106.51532,35.19663],[-106.51654,35.20823],[-106.52020,35.21947],[-106.52619,35.23003],[-106.53432,35.23957],[-106.54434,35.24780],[-106.55596,35.25448],[-106.56882,35.25940],[-106.58252,35.26242],[-106.59666,35.26343],[-106.61080,35.26242],[-106.62450,35.25940],[-106.63736,35.25448],[-106.64898,35.24780],[-106.65901,35.23957],[-106.66714,35.23003],[-106.67312,35.21947],[-106.67678,35.20823],[-106.67801,35.19663]]]},"geometry_name":"SHAPE","properties":{"GID":234186,"CNS_LOCATION_ID":"ZAB","NOTAM_KEY":"6/6191-1-FDC-F","TITLE":"Albuquerque, NM, Saturday, October 3, 2026 through Sunday, October 11, 2026 UTC","LAST_MODIFICATION_DATETIME":"202609291953","STATE":"NM","LEGAL":"AIR SHOWS/SPORTS"}},{"type":"Feature","id":"V_TFR_LOC.6/6193","geometry":{"type":"Polygon","coordinates":[[[-121.51479,38.60472],[-121.51463,38.60327],[-121.51415,38.60186],[-121.51337,38.60055],[-121.51230,38.59935],[-121.51099,38.59833],[-121.50948,38.59749],[-121.50780,38.59688],[-121.50601,38.59650],[-121.50416,38.59638],[-121.50232,38.59650],[-121.50053,38.59688],[-121.49885,38.59749],[-121.49733,38.59833],[-121.49602,38.59935],[-121.49496,38.60055],[-121.49417,38.60186],[-121.49369,38.60327],[-121.49353,38.60472],[-121.49369,38.60617],[-121.49417,38.60757],[-121.49495,38.60889],[-121.49602,38.61008],[-121.49733,38.61111],[-121.49885,38.61194],[-121.50053,38.61256],[-121.50232,38.61293],[-121.50416,38.61306],[-121.50601,38.61293],[-121.50780,38.61256],[-121.50948,38.61194],[-121.51100,38.61111],[-121.51231,38.61008],[-121.51337,38.60889],[-121.51415,38.60757],[-121.51463,38.60617],[-121.51479,38.60472]]]},"geometry_name":"SHAPE","properties":{"GID":234187,"CNS_LOCATION_ID":"ZOA","NOTAM_KEY":"6/6193-1-FDC-F","TITLE":"Sacramento, CA, Thursday, October 1, 2026 through Sunday, October 4, 2026 Local","LAST_MODIFICATION_DATETIME":"202609291957","STATE":"CA","LEGAL":"SECURITY"}},{"type":"Feature","id":"V_TFR_LOC.4/3635","geometry":{"type":"Polygon","coordinates":[[[-117.98138,33.80137],[-117.98047,33.79267],[-117.97775,33.78424],[-117.97333,33.77633],[-117.96733,33.76918],[-117.95993,33.76301],[-117.95137,33.75800],[-117.94189,33.75431],[-117.93180,33.75205],[-117.92138,33.75129],[-117.91097,33.75205],[-117.90087,33.75431],[-117.89140,33.75800],[-117.88283,33.76301],[-117.87544,33.76918],[-117.86944,33.77633],[-117.86501,33.78424],[-117.86230,33.79267],[-117.86138,33.80137],[-117.86229,33.81007],[-117.86499,33.81850],[-117.86941,33.82642],[-117.87540,33.83357],[-117.88280,33.83975],[-117.89137,33.84476],[-117.90085,33.84845],[-117.91096,33.85071],[-117.92138,33.85147],[-117.93181,33.85071],[-117.94192,33.84845],[-117.95140,33.84476],[-117.95997,33.83975],[-117.96736,33.83357],[-117.97336,33.82642],[-117.97778,33.81850],[-117.98048,33.81007],[-117.98138,33.80137]]]},"geometry_name":"SHAPE","properties":{"GID":233454,"CNS_LOCATION_ID":"ZLA","NOTAM_KEY":"4/3635-1-FDC-F","TITLE":"DISNEYLAND THEME PARK, ANAHEIM,, CA","LAST_MODIFICATION_DATETIME":"201510080055","STATE":"CA","LEGAL":"SECURITY"}},{"type":"Feature","id":"V_TFR_LOC.6/5558","geometry":{"type":"Polygon","coordinates":[[[-108.68325,39.12629],[-108.68093,39.10601],[-108.67413,39.08636],[-108.66306,39.06792],[-108.64805,39.05127],[-108.62957,39.03689],[-108.60818,39.02523],[-108.58453,39.01664],[-108.55932,39.01138],[-108.53333,39.00961],[-108.50734,39.01138],[-108.48213,39.01664],[-108.45847,39.02523],[-108.43708,39.03689],[-108.41860,39.05127],[-108.40360,39.06792],[-108.39253,39.08636],[-108.38573,39.10601],[-108.38341,39.12629],[-108.38564,39.14657],[-108.39237,39.16624],[-108.40339,39.18470],[-108.41836,39.20139],[-108.43684,39.21580],[-108.45826,39.22749],[-108.48197,39.23610],[-108.50725,39.24138],[-108.53333,39.24316],[-108.55940,39.24138],[-108.58468,39.23610],[-108.60840,39.22749],[-108.62982,39.21580],[-108.64830,39.20139],[-108.66327,39.18470],[-108.67429,39.16624],[-108.68101,39.14657],[-108.68325,39.12629]]]},"geometry_name":"SHAPE","properties":{"GID":234248,"CNS_LOCATION_ID":"ZDV","NOTAM_KEY":"6/5558-1-FDC-F","TITLE":"Grand Junction, CO, Thursday, October 1, 2026 through Sunday, October 4, 2026 UTC","LAST_MODIFICATION_DATETIME":"202609252055","STATE":"CO","LEGAL":"AIR SHOWS/SPORTS"}},{"type":"Feature","id":"V_TFR_LOC.6/6087","geometry":{"type":"Polygon","coordinates":[[[-106.67801,35.19663],[-106.67676,35.18504],[-106.67308,35.17380],[-106.66708,35.16325],[-106.65894,35.15373],[-106.64892,35.14550],[-106.63731,35.13883],[-106.62446,35.13391],[-106.61078,35.13090],[-106.59666,35.12989],[-106.58255,35.13090],[-106.56886,35.13391],[-106.55602,35.13883],[-106.54441,35.14550],[-106.53438,35.15373],[-106.52624,35.16325],[-106.52024,35.17380],[-106.51656,35.18504],[-106.51532,35.19663],[-106.51654,35.20823],[-106.52020,35.21947],[-106.52619,35.23003],[-106.53432,35.23957],[-106.54434,35.24780],[-106.55596,35.25448],[-106.56882,35.25940],[-106.58252,35.26242],[-106.59666,35.26343],[-106.61080,35.26242],[-106.62450,35.25940],[-106.63736,35.25448],[-106.64898,35.24780],[-106.65901,35.23957],[-106.66714,35.23003],[-106.67312,35.21947],[-106.67678,35.20823],[-106.67801,35.19663]]]},"geometry_name":"SHAPE","properties":{"GID":234175,"CNS_LOCATION_ID":"ZAB","NOTAM_KEY":"6/6087-1-FDC-F","TITLE":"Albuquerque, NM, Saturday, October 3, 2026 through Sunday, October 11, 2026 UTC","LAST_MODIFICATION_DATETIME":"202609291512","STATE":"NM","LEGAL":"AIR SHOWS/SPORTS"}},{"type":"Feature","id":"V_TFR_LOC.6/5761","geometry":{"type":"Polygon","coordinates":[[[-92.30962,34.83442],[-92.30869,34.82573],[-92.30595,34.81730],[-92.30147,34.80939],[-92.29540,34.80224],[-92.28791,34.79607],[-92.27924,34.79106],[-92.26965,34.78738],[-92.25943,34.78512],[-92.24888,34.78436],[-92.23834,34.78512],[-92.22812,34.78738],[-92.21853,34.79106],[-92.20986,34.79607],[-92.20237,34.80224],[-92.19630,34.80939],[-92.19182,34.81730],[-92.18907,34.82573],[-92.18814,34.83442],[-92.18906,34.84312],[-92.19180,34.85156],[-92.19627,34.85947],[-92.20234,34.86662],[-92.20982,34.87280],[-92.21850,34.87781],[-92.22810,34.88150],[-92.23833,34.88376],[-92.24888,34.88452],[-92.25944,34.88376],[-92.26967,34.88150],[-92.27927,34.87781],[-92.28795,34.87280],[-92.29543,34.86662],[-92.30150,34.85947],[-92.30597,34.85156],[-92.30871,34.84312],[-92.30962,34.83442]]]},"geometry_name":"SHAPE","properties":{"GID":234076,"CNS_LOCATION_ID":"ZME","NOTAM_KEY":"6/5761-1-FDC-F","TITLE":"North Little Rock, AR, Friday, October 2, 2026 through Sunday, October 4, 2026 UTC","LAST_MODIFICATION_DATETIME":"202609271929","STATE":"AR","LEGAL":"AIR SHOWS/SPORTS"}},{"type":"Feature","id":"V_TFR_LOC.6/6135","geometry":{"type":"Polygon","coordinates":[[[-119.36404,40.88258],[-119.36268,40.86078],[-119.35882,40.83916],[-119.35250,40.81787],[-119.34376,40.79708],[-119.33268,40.77694],[-119.31935,40.75762],[-119.30385,40.73925],[-119.28632,40.72198],[-119.26688,40.70593],[-119.24569,40.69122],[-119.22291,40.67798],[-119.19870,40.66629],[-119.17326,40.65625],[-119.14677,40.64792],[-119.11944,40.64138],[-119.09146,40.63668],[-119.06306,40.63384],[-119.03444,40.63289],[-119.00582,40.63384],[-118.97742,40.63668],[-118.94944,40.64138],[-118.92211,40.64792],[-118.89562,40.65625],[-118.87017,40.66629],[-118.84597,40.67798],[-118.82318,40.69122],[-118.80199,40.70593],[-118.78256,40.72198],[-118.76503,40.73925],[-118.74953,40.75762],[-118.73619,40.77694],[-118.72512,40.79708],[-118.71638,40.81787],[-118.71006,40.83916],[-118.70620,40.86078],[-118.70484,40.88258],[-118.70599,40.90439],[-118.70963,40.92603],[-118.71576,40.94735],[-118.72432,40.96819],[-118.73524,40.98838],[-118.74846,41.00777],[-118.76386,41.02621],[-118.78134,41.04357],[-118.80075,41.05970],[-118.82196,41.07448],[-118.84480,41.08781],[-118.86910,41.09957],[-118.89467,41.10968],[-118.92131,41.11806],[-118.94882,41.12464],[-118.97699,41.12938],[-119.00560,41.13224],[-119.03444,41.13320],[-119.06327,41.13224],[-119.09189,41.12938],[-119.12006,41.12464],[-119.14757,41.11806],[-119.17421,41.10968],[-119.19978,41.09957],[-119.22408,41.08781],[-119.24692,41.07448],[-119.26812,41.05970],[-119.28754,41.04357],[-119.30502,41.02621],[-119.32042,41.00777],[-119.33363,40.98838],[-119.34456,40.96819],[-119.35312,40.94735],[-119.35924,40.92603],[-119.36289,40.90439],[-119.36404,40.88258]]]},"geometry_name":"SHAPE","properties":{"GID":234181,"CNS_LOCATION_ID":"ZLC","NOTAM_KEY":"6/6135-1-FDC-F","TITLE":"35 ZLC AIRSPACE BLACK ROCK, NV, Saturday, October 3, 2026 through Sunday, October 4, 2026 UTC","LAST_MODIFICATION_DATETIME":"202609291744","STATE":"NV","LEGAL":"SPACE OPERATIONS"}},{"type":"Feature","id":"V_TFR_LOC.6/6136","geometry":{"type":"Polygon","coordinates":[[[-119.36404,40.88258],[-119.36268,40.86078],[-119.35882,40.83916],[-119.35250,40.81787],[-119.34376,40.79708],[-119.33268,40.77694],[-119.31935,40.75762],[-119.30385,40.73925],[-119.28632,40.72198],[-119.26688,40.70593],[-119.24569,40.69122],[-119.22291,40.67798],[-119.19870,40.66629],[-119.17326,40.65625],[-119.14677,40.64792],[-119.11944,40.64138],[-119.09146,40.63668],[-119.06306,40.63384],[-119.03444,40.63289],[-119.00582,40.63384],[-118.97742,40.63668],[-118.94944,40.64138],[-118.92211,40.64792],[-118.89562,40.65625],[-118.87017,40.66629],[-118.84597,40.67798],[-118.82318,40.69122],[-118.80199,40.70593],[-118.78256,40.72198],[-118.76503,40.73925],[-118.74953,40.75762],[-118.73619,40.77694],[-118.72512,40.79708],[-118.71638,40.81787],[-118.71006,40.83916],[-118.70620,40.86078],[-118.70484,40.88258],[-118.70599,40.90439],[-118.70963,40.92603],[-118.71576,40.94735],[-118.72432,40.96819],[-118.73524,40.98838],[-118.74846,41.00777],[-118.76386,41.02621],[-118.78134,41.04357],[-118.80075,41.05970],[-118.82196,41.07448],[-118.84480,41.08781],[-118.86910,41.09957],[-118.89467,41.10968],[-118.92131,41.11806],[-118.94882,41.12464],[-118.97699,41.12938],[-119.00560,41.13224],[-119.03444,41.13320],[-119.06327,41.13224],[-119.09189,41.12938],[-119.12006,41.12464],[-119.14757,41.11806],[-119.17421,41.10968],[-119.19978,41.09957],[-119.22408,41.08781],[-119.24692,41.07448],[-119.26812,41.05970],[-119.28754,41.04357],[-119.30502,41.02621],[-119.32042,41.00777],[-119.33363,40.98838],[-119.34456,40.96819],[-119.35312,40.94735],[-119.35924,40.92603],[-119.36289,40.90439],[-119.36404,40.88258]]]},"geometry_name":"SHAPE","properties":{"GID":234182,"CNS_LOCATION_ID":"ZLC","NOTAM_KEY":"6/6136-1-FDC-F","TITLE":"36 ZLC AIRSPACE BLACK ROCK, NV, Sunday, October 4, 2026 through Monday, October 5, 2026 UTC","LAST_MODIFICATION_DATETIME":"202609291746","STATE":"NV","LEGAL":"SPACE OPERATIONS"}},{"type":"Feature","id":"V_TFR_LOC.6/3475","geometry":{"type":"Polygon","coordinates":[[[-121.65169,39.13396],[-121.64835,39.10500],[-121.63861,39.07693],[-121.62278,39.05060],[-121.60133,39.02682],[-121.57493,39.00629],[-121.54438,38.98964],[-121.51059,38.97738],[-121.47460,38.96987],[-121.4375,38.96734],[-121.40039,38.96987],[-121.36440,38.97738],[-121.33061,38.98964],[-121.30006,39.00629],[-121.27366,39.02682],[-121.25221,39.05060],[-121.23638,39.07693],[-121.22664,39.10500],[-121.22330,39.13396],[-121.22647,39.16294],[-121.23605,39.19104],[-121.25178,39.21742],[-121.27316,39.24127],[-121.29956,39.26187],[-121.33018,39.27858],[-121.36407,39.29090],[-121.40021,39.29844],[-121.4375,39.30098],[-121.47478,39.29844],[-121.51092,39.29090],[-121.54481,39.27858],[-121.57543,39.26187],[-121.60183,39.24127],[-121.62321,39.21742],[-121.63894,39.19104],[-121.64852,39.16294],[-121.65169,39.13396]]]},"geometry_name":"SHAPE","properties":{"GID":233319,"CNS_LOCATION_ID":"ZOA","NOTAM_KEY":"6/3475-1-FDC-F","TITLE":"BEALE AFB, CA, Sunday, March 8, 2026 through Sunday, November 1, 2026 Local","LAST_MODIFICATION_DATETIME":"202603041140","STATE":"CA","LEGAL":"SECURITY"}},{"type":"Feature","id":"V_TFR_LOC.6/5976","geometry":{"type":"Polygon","coordinates":[[[-120.35516,36.16278],[-120.35422,36.15409],[-120.35142,36.14566],[-120.34687,36.13775],[-120.34069,36.13061],[-120.33308,36.12444],[-120.32427,36.11943],[-120.31452,36.11575],[-120.30413,36.11349],[-120.29341,36.11273],[-120.28270,36.11349],[-120.27231,36.11575],[-120.26255,36.11943],[-120.25374,36.12444],[-120.24613,36.13061],[-120.23995,36.13775],[-120.23540,36.14566],[-120.23261,36.15409],[-120.23166,36.16278],[-120.23259,36.17148],[-120.23537,36.17991],[-120.23992,36.18782],[-120.24609,36.19498],[-120.25370,36.20115],[-120.26252,36.20616],[-120.27228,36.20985],[-120.28268,36.21211],[-120.29341,36.21287],[-120.30414,36.21211],[-120.31454,36.20985],[-120.32430,36.20616],[-120.33312,36.20115],[-120.34073,36.19498],[-120.34690,36.18782],[-120.35145,36.17991],[-120.35423,36.17148],[-120.35516,36.16278]]]},"geometry_name":"SHAPE","properties":{"GID":234252,"CNS_LOCATION_ID":"ZOA","NOTAM_KEY":"6/5976-1-FDC-F","TITLE":"Coalinga, CA, Friday, October 2, 2026 through Saturday, October 3, 2026 UTC","LAST_MODIFICATION_DATETIME":"202609282021","STATE":"CA","LEGAL":"AIR SHOWS/SPORTS"}},{"type":"Feature","id":"V_TFR_LOC.6/6576","geometry":{"type":"Polygon","coordinates":[[[-98.98030,40.93727],[-98.97736,40.89369],[-98.96943,40.85046],[-98.95658,40.80792],[-98.93892,40.76638],[-98.91659,40.72618],[-98.88977,40.68760],[-98.85866,40.65093],[-98.82352,40.61646],[-98.78460,40.58445],[-98.74220,40.55512],[-98.69665,40.52871],[-98.64829,40.50540],[-98.59749,40.48538],[-98.54462,40.46879],[-98.49008,40.45576],[-98.43427,40.44638],[-98.37762,40.44073],[-98.32055,40.43884],[-98.26348,40.44073],[-98.20683,40.44638],[-98.15102,40.45576],[-98.09648,40.46879],[-98.04361,40.48538],[-97.99281,40.50540],[-97.94445,40.52871],[-97.89890,40.55512],[-97.85650,40.58445],[-97.81759,40.61646],[-97.78244,40.65093],[-97.75133,40.68760],[-97.72451,40.72618],[-97.70218,40.76638],[-97.68452,40.80792],[-97.67168,40.85046],[-97.66375,40.89369],[-97.66080,40.93727],[-97.66288,40.98089],[-97.66997,41.02420],[-97.68204,41.06688],[-97.69898,41.10860],[-97.72070,41.14904],[-97.74702,41.18788],[-97.77776,41.22484],[-97.81268,41.25963],[-97.85153,41.29197],[-97.89400,41.32162],[-97.93977,41.34834],[-97.98850,41.37194],[-98.03980,41.39223],[-98.09328,41.40905],[-98.14853,41.42227],[-98.20512,41.43179],[-98.26261,41.43752],[-98.32055,41.43944],[-98.37849,41.43752],[-98.43598,41.43179],[-98.49257,41.42227],[-98.54782,41.40905],[-98.60130,41.39223],[-98.65260,41.37194],[-98.70133,41.34834],[-98.74710,41.32162],[-98.78957,41.29197],[-98.82842,41.25963],[-98.86334,41.22484],[-98.89408,41.18788],[-98.92040,41.14904],[-98.94212,41.10860],[-98.95907,41.06688],[-98.97113,41.02420],[-98.97822,40.98089],[-98.98030,40.93727]]]},"geometry_name":"SHAPE","properties":{"GID":234250,"CNS_LOCATION_ID":"ZMP","NOTAM_KEY":"6/6576-1-FDC-F","TITLE":"Grand Island, NE, Monday, October 5, 2026 through Monday, October 5, 2026 Local","LAST_MODIFICATION_DATETIME":"202610011317","STATE":"NE","LEGAL":"VIP"}},{"type":"Feature","id":"V_TFR_LOC.6/6576","geometry":{"type":"Polygon","coordinates":[[[-98.54047,40.93895],[-98.53703,40.91000],[-98.52703,40.88194],[-98.51077,40.85562],[-98.48875,40.83184],[-98.46164,40.81132],[-98.43027,40.79468],[-98.39559,40.78242],[-98.35864,40.77492],[-98.32055,40.77239],[-98.28246,40.77492],[-98.24551,40.78242],[-98.21083,40.79468],[-98.17946,40.81132],[-98.15235,40.83184],[-98.13033,40.85562],[-98.11407,40.88194],[-98.10407,40.91000],[-98.10063,40.93895],[-98.10388,40.96792],[-98.11372,40.99601],[-98.12985,41.02239],[-98.15181,41.04623],[-98.17892,41.06682],[-98.21035,41.08353],[-98.24516,41.09585],[-98.28227,41.10339],[-98.32055,41.10593],[-98.35883,41.10339],[-98.39595,41.09585],[-98.43075,41.08353],[-98.46219,41.06682],[-98.48929,41.04623],[-98.51125,41.02239],[-98.52739,40.99601],[-98.53722,40.96792],[-98.54047,40.93895]]]},"geometry_name":"SHAPE","properties":{"GID":234251,"CNS_LOCATION_ID":"ZMP","NOTAM_KEY":"6/6576-1-FDC-F","TITLE":"Grand Island, NE, Monday, October 5, 2026 through Monday, October 5, 2026 Local","LAST_MODIFICATION_DATETIME":"202610011317","STATE":"NE","LEGAL":"VIP"}},{"type":"Feature","id":"V_TFR_LOC.6/6590","geometry":{"type":"Polygon","coordinates":[[[-84.85157,39.89345],[-84.84869,39.84986],[-84.84089,39.80662],[-84.82826,39.76407],[-84.81088,39.72252],[-84.78890,39.68231],[-84.76250,39.64371],[-84.73188,39.60704],[-84.69728,39.57256],[-84.65896,39.54053],[-84.61721,39.51119],[-84.57236,39.48477],[-84.52473,39.46145],[-84.47470,39.44142],[-84.42263,39.42483],[-84.36891,39.41179],[-84.31395,39.40241],[-84.25815,39.39675],[-84.20194,39.39486],[-84.14573,39.39675],[-84.08993,39.40241],[-84.03497,39.41179],[-83.98125,39.42483],[-83.92918,39.44142],[-83.87915,39.46145],[-83.83152,39.48477],[-83.78667,39.51119],[-83.74492,39.54053],[-83.70660,39.57256],[-83.67200,39.60704],[-83.64138,39.64371],[-83.61497,39.68231],[-83.59300,39.72252],[-83.57562,39.76407],[-83.56299,39.80662],[-83.55519,39.84986],[-83.55231,39.89345],[-83.55437,39.93708],[-83.56137,39.98040],[-83.57326,40.02308],[-83.58996,40.06480],[-83.61136,40.10524],[-83.63728,40.14409],[-83.66756,40.18105],[-83.70195,40.21584],[-83.74020,40.24818],[-83.78202,40.27783],[-83.82708,40.30455],[-83.87506,40.32815],[-83.92556,40.34844],[-83.97822,40.36525],[-84.03261,40.37847],[-84.08831,40.38799],[-84.14490,40.39373],[-84.20194,40.39564],[-84.25897,40.39373],[-84.31556,40.38799],[-84.37127,40.37847],[-84.42566,40.36525],[-84.47832,40.34844],[-84.52882,40.32815],[-84.57680,40.30455],[-84.62186,40.27783],[-84.66368,40.24818],[-84.70193,40.21584],[-84.73632,40.18105],[-84.76659,40.14409],[-84.79252,40.10524],[-84.81392,40.06480],[-84.83062,40.02308],[-84.84251,39.98040],[-84.84951,39.93708],[-84.85157,39.89345]]]},"geometry_name":"SHAPE","properties":{"GID":234254,"CNS_LOCATION_ID":"ZID","NOTAM_KEY":"6/6590-1-FDC-F","TITLE":"Dayton, OH, Saturday, October 3, 2026 through Saturday, October 3, 2026 Local","LAST_MODIFICATION_DATETIME":"202610011437","STATE":"OH","LEGAL":"VIP"}},{"type":"Feature","id":"V_TFR_LOC.6/6590","geometry":{"type":"Polygon","coordinates":[[[-84.41849,39.89507],[-84.41511,39.86611],[-84.40526,39.83805],[-84.38925,39.81172],[-84.36757,39.78794],[-84.34088,39.76741],[-84.30999,39.75077],[-84.27583,39.73851],[-84.23945,39.73100],[-84.20194,39.72847],[-84.16443,39.73100],[-84.12804,39.73851],[-84.09389,39.75077],[-84.06300,39.76741],[-84.03631,39.78794],[-84.01463,39.81172],[-83.99862,39.83805],[-83.98877,39.86611],[-83.98539,39.89507],[-83.98859,39.92404],[-83.99828,39.95214],[-84.01418,39.97852],[-84.03580,40.00237],[-84.06249,40.02296],[-84.09344,40.03967],[-84.12771,40.05199],[-84.16425,40.05953],[-84.20194,40.06207],[-84.23963,40.05953],[-84.27617,40.05199],[-84.31044,40.03967],[-84.34139,40.02296],[-84.36808,40.00237],[-84.38970,39.97852],[-84.40560,39.95214],[-84.41529,39.92404],[-84.41849,39.89507]]]},"geometry_name":"SHAPE","properties":{"GID":234255,"CNS_LOCATION_ID":"ZID","NOTAM_KEY":"6/6590-1-FDC-F","TITLE":"Dayton, OH, Saturday, October 3, 2026 through Saturday, October 3, 2026 Local","LAST_MODIFICATION_DATETIME":"202610011437","STATE":"OH","LEGAL":"VIP"}},{"type":"Feature","id":"V_TFR_LOC.6/4812","geometry":{"type":"Polygon","coordinates":[[[-116.03833,33.02222],[-115.76111,33.02222],[-115.85416,33.10972],[-115.94805,33.10972],[-116.03833,33.02222]]]},"geometry_name":"SHAPE","properties":{"GID":231600,"CNS_LOCATION_ID":"ZLA","NOTAM_KEY":"6/4812-1-FDC-F","TITLE":"El Centro, CA, Wednesday, July 15, 2026 through Tuesday, July 13, 2027 Local","LAST_MODIFICATION_DATETIME":"202607101716","STATE":"CA","LEGAL":"SECURITY"}},{"type":"Feature","id":"V_TFR_LOC.6/5821","geometry":{"type":"Polygon","coordinates":[[[-71.28682,42.09083],[-71.28648,42.08793],[-71.28547,42.08512],[-71.28382,42.08249],[-71.28158,42.08011],[-71.27883,42.07805],[-71.27563,42.07639],[-71.27209,42.07516],[-71.26833,42.07441],[-71.26444,42.07415],[-71.26055,42.07441],[-71.25679,42.07516],[-71.25325,42.07639],[-71.25005,42.07805],[-71.24729,42.08011],[-71.24506,42.08249],[-71.24341,42.08512],[-71.24240,42.08793],[-71.24205,42.09083],[-71.24239,42.09372],[-71.24340,42.09653],[-71.24505,42.09916],[-71.24729,42.10154],[-71.25005,42.10360],[-71.25324,42.10527],[-71.25678,42.10650],[-71.26055,42.10725],[-71.26444,42.10750],[-71.26833,42.10725],[-71.27210,42.10650],[-71.27563,42.10527],[-71.27883,42.10360],[-71.28159,42.10154],[-71.28383,42.09916],[-71.28548,42.09653],[-71.28649,42.09372],[-71.28682,42.09083]]]},"geometry_name":"SHAPE","properties":{"GID":234113,"CNS_LOCATION_ID":"ZBW","NOTAM_KEY":"6/5821-1-FDC-F","TITLE":"Foxborough, MA, Friday, October 2, 2026 through Sunday, October 4, 2026 UTC","LAST_MODIFICATION_DATETIME":"202609281058","STATE":"MA","LEGAL":"UAS PUBLIC GATHERING"}},{"type":"Feature","id":"V_TFR_LOC.6/5822","geometry":{"type":"Polygon","coordinates":[[[-75.10840,38.32944],[-75.10808,38.32654],[-75.10712,38.32373],[-75.10556,38.32110],[-75.10344,38.31871],[-75.10083,38.31666],[-75.09781,38.31499],[-75.09446,38.31376],[-75.09089,38.31301],[-75.08722,38.31276],[-75.08354,38.31301],[-75.07997,38.31376],[-75.07663,38.31499],[-75.07360,38.31666],[-75.07099,38.31871],[-75.06888,38.32110],[-75.06732,38.32373],[-75.06636,38.32654],[-75.06604,38.32944],[-75.06636,38.33233],[-75.06731,38.33514],[-75.06887,38.33778],[-75.07099,38.34016],[-75.07360,38.34222],[-75.07662,38.34389],[-75.07997,38.34512],[-75.08354,38.34587],[-75.08722,38.34612],[-75.09090,38.34587],[-75.09446,38.34512],[-75.09781,38.34389],[-75.10083,38.34222],[-75.10344,38.34016],[-75.10556,38.33778],[-75.10712,38.33514],[-75.10808,38.33233],[-75.10840,38.32944]]]},"geometry_name":"SHAPE","properties":{"GID":234112,"CNS_LOCATION_ID":"ZDC","NOTAM_KEY":"6/5822-1-FDC-F","TITLE":"Ocean City, MD, Friday, October 2, 2026 through Sunday, October 4, 2026 UTC","LAST_MODIFICATION_DATETIME":"202609281059","STATE":"MD","LEGAL":"UAS PUBLIC GATHERING"}},{"type":"Feature","id":"V_TFR_LOC.4/3634","geometry":{"type":"Polygon","coordinates":[[[-81.62892,28.41248],[-81.62805,28.40378],[-81.62549,28.39534],[-81.62131,28.38742],[-81.61564,28.38026],[-81.60865,28.37409],[-81.60056,28.36908],[-81.59160,28.36538],[-81.58206,28.36312],[-81.57222,28.36236],[-81.56238,28.36312],[-81.55283,28.36538],[-81.54388,28.36908],[-81.53578,28.37409],[-81.52879,28.38026],[-81.52312,28.38742],[-81.51894,28.39534],[-81.51638,28.40378],[-81.51551,28.41248],[-81.51637,28.42119],[-81.51893,28.42963],[-81.52310,28.43755],[-81.52877,28.44471],[-81.53576,28.45089],[-81.54385,28.45591],[-81.55282,28.45960],[-81.56237,28.46187],[-81.57222,28.46263],[-81.58207,28.46187],[-81.59162,28.45960],[-81.60058,28.45591],[-81.60868,28.45089],[-81.61567,28.44471],[-81.62133,28.43755],[-81.62551,28.42963],[-81.62806,28.42119],[-81.62892,28.41248]]]},"geometry_name":"SHAPE","properties":{"GID":233462,"CNS_LOCATION_ID":"ZJX","NOTAM_KEY":"4/3634-1-FDC-F","TITLE":"DISNEY WORLD THEME PARK, ORLANDO, FL","LAST_MODIFICATION_DATETIME":"201510080055","STATE":"FL","LEGAL":"SECURITY"}},{"type":"Feature","id":"V_TFR_LOC.6/5849","geometry":{"type":"Polygon","coordinates":[[[-97.79202,30.26694],[-97.79173,30.26404],[-97.79086,30.26122],[-97.78944,30.25859],[-97.78751,30.25620],[-97.78514,30.25414],[-97.78239,30.25247],[-97.77935,30.25124],[-97.77611,30.25049],[-97.77277,30.25023],[-97.76943,30.25049],[-97.76619,30.25124],[-97.76315,30.25247],[-97.76040,30.25414],[-97.75803,30.25620],[-97.75611,30.25859],[-97.75469,30.26122],[-97.75382,30.26404],[-97.75353,30.26694],[-97.75382,30.26984],[-97.75469,30.27265],[-97.75610,30.27529],[-97.75803,30.27768],[-97.76040,30.27974],[-97.76315,30.28141],[-97.76619,30.28264],[-97.76943,30.28339],[-97.77277,30.28365],[-97.77612,30.28339],[-97.77936,30.28264],[-97.78240,30.28141],[-97.78515,30.27974],[-97.78752,30.27768],[-97.78944,30.27529],[-97.79086,30.27265],[-97.79173,30.26984],[-97.79202,30.26694]]]},"geometry_name":"SHAPE","properties":{"GID":234119,"CNS_LOCATION_ID":"ZHU","NOTAM_KEY":"6/5849-1-FDC-F","TITLE":"Austin, TX, Friday, October 2, 2026 through Monday, October 12, 2026 UTC","LAST_MODIFICATION_DATETIME":"202609281434","STATE":"TX","LEGAL":"UAS PUBLIC GATHERING"}},{"type":"Feature","id":"V_TFR_LOC.6/5920","geometry":{"type":"Polygon","coordinates":[[[-106.67801,35.19663],[-106.67676,35.18504],[-106.67308,35.17380],[-106.66708,35.16325],[-106.65894,35.15373],[-106.64892,35.14550],[-106.63731,35.13883],[-106.62446,35.13391],[-106.61078,35.13090],[-106.59666,35.12989],[-106.58255,35.13090],[-106.56886,35.13391],[-106.55602,35.13883],[-106.54441,35.14550],[-106.53438,35.15373],[-106.52624,35.16325],[-106.52024,35.17380],[-106.51656,35.18504],[-106.51532,35.19663],[-106.51654,35.20823],[-106.52020,35.21947],[-106.52619,35.23003],[-106.53432,35.23957],[-106.54434,35.24780],[-106.55596,35.25448],[-106.56882,35.25940],[-106.58252,35.26242],[-106.59666,35.26343],[-106.61080,35.26242],[-106.62450,35.25940],[-106.63736,35.25448],[-106.64898,35.24780],[-106.65901,35.23957],[-106.66714,35.23003],[-106.67312,35.21947],[-106.67678,35.20823],[-106.67801,35.19663]]]},"geometry_name":"SHAPE","properties":{"GID":234128,"CNS_LOCATION_ID":"ZAB","NOTAM_KEY":"6/5920-1-FDC-F","TITLE":"Albuquerque, NM, Friday, October 2, 2026 through Sunday, October 11, 2026 UTC","LAST_MODIFICATION_DATETIME":"202609281743","STATE":"NM","LEGAL":"AIR SHOWS/SPORTS"}},{"type":"Feature","id":"V_TFR_LOC.6/5995","geometry":{"type":"Polygon","coordinates":[[[-118.03298,33.64138],[-118.03237,33.63558],[-118.03056,33.62996],[-118.02762,33.62468],[-118.02363,33.61991],[-118.01871,33.61580],[-118.01301,33.61246],[-118.00670,33.61000],[-117.99998,33.60850],[-117.99305,33.60799],[-117.98612,33.60850],[-117.97940,33.61000],[-117.97309,33.61246],[-117.96739,33.61580],[-117.96247,33.61991],[-117.95848,33.62468],[-117.95554,33.62996],[-117.95373,33.63558],[-117.95312,33.64138],[-117.95373,33.64718],[-117.95553,33.65280],[-117.95847,33.65808],[-117.96246,33.66285],[-117.96738,33.66696],[-117.97308,33.67030],[-117.97939,33.67276],[-117.98611,33.67427],[-117.99305,33.67478],[-117.99999,33.67427],[-118.00671,33.67276],[-118.01302,33.67030],[-118.01872,33.66696],[-118.02364,33.66285],[-118.02763,33.65808],[-118.03057,33.65280],[-118.03237,33.64718],[-118.03298,33.64138]]]},"geometry_name":"SHAPE","properties":{"GID":234151,"CNS_LOCATION_ID":"ZLA","NOTAM_KEY":"6/5995-1-FDC-F","TITLE":"Huntington Beach, CA, Thursday, October 1, 2026 through Sunday, October 4, 2026 Local","LAST_MODIFICATION_DATETIME":"202609282125","STATE":"CA","LEGAL":"SECURITY"}},{"type":"Feature","id":"V_TFR_LOC.6/6391","geometry":{"type":"Polygon","coordinates":[[[-97.91471,36.04444],[-97.91440,36.04154],[-97.91347,36.03873],[-97.91196,36.03609],[-97.90990,36.03371],[-97.90737,36.03165],[-97.90444,36.02998],[-97.90119,36.02876],[-97.89773,36.02800],[-97.89416,36.02775],[-97.89059,36.02800],[-97.88713,36.02876],[-97.88389,36.02998],[-97.88095,36.03165],[-97.87842,36.03371],[-97.87637,36.03609],[-97.87485,36.03873],[-97.87392,36.04154],[-97.87361,36.04444],[-97.87392,36.04734],[-97.87485,36.05015],[-97.87636,36.05278],[-97.87842,36.05517],[-97.88095,36.05722],[-97.88388,36.05889],[-97.88713,36.06012],[-97.89059,36.06088],[-97.89416,36.06113],[-97.89773,36.06088],[-97.90119,36.06012],[-97.90444,36.05889],[-97.90737,36.05722],[-97.90991,36.05517],[-97.91196,36.05278],[-97.91348,36.05015],[-97.91440,36.04734],[-97.91471,36.04444]]]},"geometry_name":"SHAPE","properties":{"GID":234214,"CNS_LOCATION_ID":"ZKC","NOTAM_KEY":"6/6391-1-FDC-F","TITLE":"HENNESSEY, OK, Tuesday, October 6, 2026 UTC","LAST_MODIFICATION_DATETIME":"202609301605","STATE":"OK","LEGAL":"HAZARDS"}},{"type":"Feature","id":"V_TFR_LOC.6/4348","geometry":{"type":"Polygon","coordinates":[[[-97.45027,47.90833],[-97.39194,47.90833],[-97.39194,48.01666],[-97.45027,48.01666],[-97.45027,47.90833]]]},"geometry_name":"SHAPE","properties":{"GID":234148,"CNS_LOCATION_ID":"ZMP","NOTAM_KEY":"6/4348-1-FDC-F","TITLE":"GRAND FORKS AFB, ND, Sunday, March 8, 2026 through Sunday, November 1, 2026 Local","LAST_MODIFICATION_DATETIME":"202603051701","STATE":"ND","LEGAL":"SECURITY"}},{"type":"Feature","id":"V_TFR_LOC.6/4348","geometry":{"type":"Polygon","coordinates":[[[-97.64778,47.96078],[-97.64666,47.94482],[-97.64347,47.92898],[-97.63824,47.91338],[-97.63102,47.89816],[-97.62185,47.88341],[-97.61082,47.86925],[-97.59800,47.85580],[-97.58349,47.84314],[-97.56740,47.83139],[-97.54986,47.82062],[-97.53101,47.81091],[-97.51097,47.80235],[-97.48991,47.79499],[-97.46798,47.78890],[-97.44536,47.78411],[-97.42220,47.78066],[-97.39869,47.77858],[-97.375,47.77777],[-97.375,48.14444],[-97.39885,48.14362],[-97.42253,48.14153],[-97.44584,48.13806],[-97.46860,48.13323],[-97.49065,48.12710],[-97.51181,48.11969],[-97.53191,48.11108],[-97.55081,48.10132],[-97.56837,48.09050],[-97.58444,48.07868],[-97.59890,48.06598],[-97.61165,48.05247],[-97.62259,48.03827],[-97.63164,48.02348],[-97.63873,48.00822],[-97.64380,47.99261],[-97.64683,47.97675],[-97.64778,47.96078]]]},"geometry_name":"SHAPE","properties":{"GID":234149,"CNS_LOCATION_ID":"ZMP","NOTAM_KEY":"6/4348-1-FDC-F","TITLE":"GRAND FORKS AFB, ND, Sunday, March 8, 2026 through Sunday, November 1, 2026 Local","LAST_MODIFICATION_DATETIME":"202603051701","STATE":"ND","LEGAL":"SECURITY"}},{"type":"Feature","id":"V_TFR_LOC.6/5945","geometry":{"type":"Polygon","coordinates":[[[-81.65777,24.4925],[-81.60361,24.37444],[-81.58694,24.38111],[-81.64111,24.49916],[-81.65777,24.4925]]]},"geometry_name":"SHAPE","properties":{"GID":234135,"CNS_LOCATION_ID":"ZMA","NOTAM_KEY":"6/5945-1-FDC-F","TITLE":"Key West, FL","LAST_MODIFICATION_DATETIME":"202609281952","STATE":"FL","LEGAL":"SECURITY"}},{"type":"Feature","id":"V_TFR_LOC.5/2809","geometry":{"type":"Polygon","coordinates":[[[-80.05638,26.67694],[-80.05610,26.67404],[-80.05526,26.67122],[-80.05389,26.66858],[-80.05202,26.66619],[-80.04973,26.66413],[-80.04707,26.66246],[-80.04414,26.66123],[-80.04100,26.66048],[-80.03777,26.66022],[-80.03454,26.66048],[-80.03141,26.66123],[-80.02847,26.66246],[-80.02581,26.66413],[-80.02352,26.66619],[-80.02166,26.66858],[-80.02029,26.67122],[-80.01945,26.67404],[-80.01917,26.67694],[-80.01945,26.67984],[-80.02029,26.68266],[-80.02166,26.68530],[-80.02352,26.68768],[-80.02581,26.68974],[-80.02847,26.69141],[-80.03141,26.69265],[-80.03454,26.69340],[-80.03777,26.69365],[-80.04100,26.69340],[-80.04414,26.69265],[-80.04708,26.69141],[-80.04973,26.68974],[-80.05203,26.68768],[-80.05389,26.68530],[-80.05526,26.68266],[-80.05610,26.67984],[-80.05638,26.67694]]]},"geometry_name":"SHAPE","properties":{"GID":234222,"CNS_LOCATION_ID":"ZMA","NOTAM_KEY":"5/2809-1-FDC-F","TITLE":"Palm Beach, FL, Monday, October 20, 2025 through Tuesday, October 20, 2026 Local","LAST_MODIFICATION_DATETIME":"202510181454","STATE":"FL","LEGAL":"SECURITY"}},{"type":"Feature","id":"V_TFR_LOC.6/6433","geometry":{"type":"Polygon","coordinates":[[[-97.11253,32.74777],[-97.11223,32.74487],[-97.11134,32.74206],[-97.10989,32.73942],[-97.10791,32.73704],[-97.10547,32.73498],[-97.10265,32.73331],[-97.09953,32.73208],[-97.09620,32.73133],[-97.09277,32.73107],[-97.08934,32.73133],[-97.08602,32.73208],[-97.08289,32.73331],[-97.08007,32.73498],[-97.07764,32.73704],[-97.07566,32.73942],[-97.07420,32.74206],[-97.07331,32.74487],[-97.07301,32.74777],[-97.07331,32.75067],[-97.07420,32.75348],[-97.07566,32.75612],[-97.07763,32.75851],[-97.08007,32.76056],[-97.08289,32.76223],[-97.08601,32.76347],[-97.08934,32.76422],[-97.09277,32.76447],[-97.09620,32.76422],[-97.09953,32.76347],[-97.10266,32.76223],[-97.10548,32.76056],[-97.10791,32.75851],[-97.10989,32.75612],[-97.11134,32.75348],[-97.11223,32.75067],[-97.11253,32.74777]]]},"geometry_name":"SHAPE","properties":{"GID":234223,"CNS_LOCATION_ID":"ZFW","NOTAM_KEY":"6/6433-1-FDC-F","TITLE":"Arlington, TX, Saturday, October 3, 2026 through Sunday, October 4, 2026 UTC","LAST_MODIFICATION_DATETIME":"202609301723","STATE":"TX","LEGAL":"UAS PUBLIC GATHERING"}},{"type":"Feature","id":"V_TFR_LOC.9/2934","geometry":{"type":"Polygon","coordinates":[[[-96.82951,32.88916],[-96.82921,32.88626],[-96.82832,32.88345],[-96.82686,32.88081],[-96.82488,32.87843],[-96.82244,32.87637],[-96.81961,32.87470],[-96.81649,32.87347],[-96.81315,32.87272],[-96.80972,32.87246],[-96.80628,32.87272],[-96.80295,32.87347],[-96.79982,32.87470],[-96.79700,32.87637],[-96.79456,32.87843],[-96.79258,32.88081],[-96.79112,32.88345],[-96.79023,32.88626],[-96.78992,32.88916],[-96.79022,32.89206],[-96.79112,32.89487],[-96.79257,32.89751],[-96.79455,32.89989],[-96.79699,32.90195],[-96.79982,32.90362],[-96.80295,32.90485],[-96.80628,32.90561],[-96.80972,32.90586],[-96.81315,32.90561],[-96.81649,32.90485],[-96.81962,32.90362],[-96.82244,32.90195],[-96.82488,32.89989],[-96.82686,32.89751],[-96.82832,32.89487],[-96.82921,32.89206],[-96.82951,32.88916]]]},"geometry_name":"SHAPE","properties":{"GID":231919,"CNS_LOCATION_ID":"ZFW","NOTAM_KEY":"9/2934-1-FDC-F","TITLE":"DALLAS, TX","LAST_MODIFICATION_DATETIME":"201510080555","STATE":"TX","LEGAL":"VIP"}},{"type":"Feature","id":"V_TFR_LOC.6/2656","geometry":{"type":"Polygon","coordinates":[[[-115.27944,32.68138],[-114.79444,32.715],[-114.79555,32.72861],[-114.91361,32.72],[-114.91972,32.71],[-115.27944,32.69583],[-115.27944,32.68138]]]},"geometry_name":"SHAPE","properties":{"GID":234240,"CNS_LOCATION_ID":"ZLA","NOTAM_KEY":"6/2656-1-FDC-F","TITLE":"Coyote Wells, CA, Saturday, July 4, 2026 through Saturday, January 2, 2027 Local","LAST_MODIFICATION_DATETIME":"202607021355","STATE":"CA","LEGAL":"SECURITY"}},{"type":"Feature","id":"V_TFR_LOC.6/2652","geometry":{"type":"Polygon","coordinates":[[[-116.08666,32.63694],[-116.085,32.62194],[-115.67388,32.6525],[-115.67472,32.66444],[-116.08666,32.63694]]]},"geometry_name":"SHAPE","properties":{"GID":234230,"CNS_LOCATION_ID":"ZLA","NOTAM_KEY":"6/2652-1-FDC-F","TITLE":"Coyote Wells, CA, Saturday, July 4, 2026 through Saturday, January 2, 2027 Local","LAST_MODIFICATION_DATETIME":"202607021345","STATE":"CA","LEGAL":"SECURITY"}},{"type":"Feature","id":"V_TFR_LOC.6/0543","geometry":{"type":"Polygon","coordinates":[[[-97.49,31.39972],[-97.48527,31.38888],[-97.46333,31.38444],[-97.42694,31.39055],[-97.43194,31.41166],[-97.44361,31.42027],[-97.44805,31.42138],[-97.46944,31.41805],[-97.48055,31.41611],[-97.48305,31.41416],[-97.49,31.39972]]]},"geometry_name":"SHAPE","properties":{"GID":234232,"CNS_LOCATION_ID":"ZFW","NOTAM_KEY":"6/0543-1-FDC-F","TITLE":"MCGREGOR, TX","LAST_MODIFICATION_DATETIME":"202601051622","STATE":"TX","LEGAL":"SECURITY"}},{"type":"Feature","id":"V_TFR_LOC.6/2853","geometry":{"type":"Polygon","coordinates":[[[-76.97298,34.68694],[-76.97268,34.68404],[-76.97176,34.68123],[-76.97027,34.67859],[-76.96825,34.67621],[-76.96576,34.67415],[-76.96288,34.67248],[-76.95968,34.67125],[-76.95628,34.67050],[-76.95277,34.67024],[-76.94926,34.67050],[-76.94586,34.67125],[-76.94267,34.67248],[-76.93978,34.67415],[-76.93729,34.67621],[-76.93527,34.67859],[-76.93378,34.68123],[-76.93287,34.68404],[-76.93256,34.68694],[-76.93287,34.68984],[-76.93378,34.69265],[-76.93527,34.69529],[-76.93729,34.69767],[-76.93978,34.69973],[-76.94267,34.70140],[-76.94586,34.70263],[-76.94926,34.70338],[-76.95277,34.70363],[-76.95628,34.70338],[-76.95969,34.70263],[-76.96288,34.70140],[-76.96577,34.69973],[-76.96826,34.69767],[-76.97028,34.69529],[-76.97177,34.69265],[-76.97268,34.68984],[-76.97298,34.68694]]]},"geometry_name":"SHAPE","properties":{"GID":233546,"CNS_LOCATION_ID":"ZDC","NOTAM_KEY":"6/2853-1-FDC-F","TITLE":"15NM SSW, NC, Monday, September 21, 2026 through Friday, October 9, 2026 UTC","LAST_MODIFICATION_DATETIME":"202609141512","STATE":"NC","LEGAL":"HAZARDS"}},{"type":"Feature","id":"V_TFR_LOC.4/9383","geometry":{"type":"Polygon","coordinates":[[[-77.31333,38.84777],[-77.31263,38.84016],[-77.30940,38.82141],[-77.30409,38.80296],[-77.29675,38.78493],[-77.28743,38.76747],[-77.27621,38.75071],[-77.26317,38.73478],[-77.24842,38.71980],[-77.23206,38.70589],[-77.21422,38.69314],[-77.19504,38.68165],[-77.17466,38.67151],[-77.15324,38.66280],[-77.13093,38.65559],[-77.10791,38.64992],[-77.08435,38.64584],[-77.06043,38.64338],[-77.03632,38.64256],[-77.01222,38.64339],[-76.98830,38.64585],[-76.96474,38.64994],[-76.94173,38.65562],[-76.91943,38.66284],[-76.89801,38.67156],[-76.87763,38.68170],[-76.85845,38.69319],[-76.84062,38.70595],[-76.82427,38.71988],[-76.80953,38.73486],[-76.79650,38.75079],[-76.78529,38.76756],[-76.77598,38.78502],[-76.76865,38.80305],[-76.76335,38.82151],[-76.76013,38.84026],[-76.75900,38.85916],[-76.75999,38.87806],[-76.76308,38.89683],[-76.76826,38.91531],[-76.77203,38.92473],[-76.7725,38.92470],[-76.77620,38.92495],[-76.77980,38.92571],[-76.78317,38.92694],[-76.78622,38.92860],[-76.78886,38.93066],[-76.79099,38.93304],[-76.79257,38.93568],[-76.79353,38.93849],[-76.79386,38.94138],[-76.79353,38.94428],[-76.79257,38.94709],[-76.79100,38.94972],[-76.78886,38.95211],[-76.78666,38.95383],[-76.79583,38.96767],[-76.80888,38.98361],[-76.84388,39.03833],[-77.07555,39.10777],[-77.08086,39.10726],[-77.10841,39.10328],[-77.13541,39.09744],[-77.16164,39.08978],[-77.18691,39.08037],[-77.21103,39.06927],[-77.23380,39.05657],[-77.25506,39.04236],[-77.27464,39.02677],[-77.29240,39.00989],[-77.30833,38.99194],[-77.31333,38.84777]]]},"geometry_name":"SHAPE","properties":{"GID":227783,"CNS_LOCATION_ID":"ZDC","NOTAM_KEY":"4/9383-1-FDC-F","TITLE":"WASHINGTON, DC., USA","LAST_MODIFICATION_DATETIME":"202409032112","STATE":"USA","LEGAL":"SECURITY"}},{"type":"Feature","id":"V_TFR_LOC.4/9383","geometry":{"type":"Polygon","coordinates":[[[-77.67648,38.85769],[-77.67366,38.81408],[-77.66599,38.77083],[-77.65356,38.72827],[-77.63645,38.68672],[-77.61480,38.64649],[-77.58880,38.60788],[-77.55863,38.57120],[-77.52454,38.53670],[-77.48678,38.50466],[-77.44564,38.47532],[-77.40144,38.44888],[-77.35451,38.42556],[-77.30520,38.40552],[-77.25389,38.38892],[-77.20095,38.37587],[-77.14678,38.36649],[-77.09179,38.36083],[-77.03638,38.35894],[-76.98098,38.36083],[-76.92599,38.36649],[-76.87182,38.37587],[-76.81888,38.38892],[-76.76756,38.40552],[-76.71826,38.42556],[-76.67132,38.44888],[-76.62712,38.47532],[-76.58599,38.50466],[-76.54823,38.53670],[-76.51414,38.57120],[-76.48397,38.60788],[-76.45797,38.64649],[-76.43632,38.68672],[-76.41921,38.72827],[-76.40677,38.77083],[-76.39911,38.81408],[-76.39628,38.85769],[-76.39833,38.90132],[-76.40524,38.94464],[-76.41697,38.98733],[-76.43344,39.02906],[-76.45453,39.06950],[-76.48009,39.10835],[-76.50992,39.14531],[-76.54381,39.18010],[-76.58150,39.21244],[-76.62270,39.24209],[-76.66711,39.26881],[-76.71437,39.29241],[-76.76413,39.31270],[-76.81600,39.32951],[-76.86958,39.34273],[-76.92445,39.35224],[-76.98020,39.35798],[-77.03638,39.35990],[-77.09257,39.35798],[-77.14831,39.35224],[-77.20319,39.34273],[-77.25677,39.32951],[-77.30864,39.31270],[-77.35840,39.29241],[-77.40566,39.26881],[-77.45006,39.24209],[-77.49127,39.21244],[-77.52896,39.18010],[-77.56285,39.14531],[-77.59268,39.10835],[-77.61824,39.06950],[-77.63933,39.02906],[-77.65580,38.98733],[-77.66753,38.94464],[-77.67444,38.90132],[-77.67648,38.85769]]]},"geometry_name":"SHAPE","properties":{"GID":227782,"CNS_LOCATION_ID":"ZDC","NOTAM_KEY":"4/9383-1-FDC-F","TITLE":"WASHINGTON, DC., USA","LAST_MODIFICATION_DATETIME":"202409032112","STATE":"USA","LEGAL":"SECURITY"}},{"type":"Feature","id":"V_TFR_LOC.6/2698","geometry":{"type":"Polygon","coordinates":[[[-65.40842,18.13831],[-65.40732,18.12640],[-65.40408,18.11485],[-65.39879,18.10402],[-65.39161,18.09422],[-65.38277,18.08577],[-65.37253,18.07891],[-65.36119,18.07386],[-65.34912,18.07077],[-65.33666,18.06972],[-65.32421,18.07077],[-65.31213,18.07386],[-65.30080,18.07891],[-65.29055,18.08577],[-65.28171,18.09422],[-65.27453,18.10402],[-65.26924,18.11485],[-65.26600,18.12640],[-65.26491,18.13831],[-65.26599,18.15023],[-65.26923,18.16178],[-65.27451,18.17262],[-65.28168,18.18242],[-65.29053,18.19088],[-65.30077,18.19774],[-65.31211,18.20279],[-65.32420,18.20589],[-65.33666,18.20693],[-65.34913,18.20589],[-65.36121,18.20279],[-65.37255,18.19774],[-65.38280,18.19088],[-65.39164,18.18242],[-65.39881,18.17262],[-65.40410,18.16178],[-65.40733,18.15023],[-65.40842,18.13831]]]},"geometry_name":"SHAPE","properties":{"GID":232875,"CNS_LOCATION_ID":"ZSU","NOTAM_KEY":"6/2698-1-FDC-F","TITLE":"VIEQUES, PR, Monday, January 19, 2026 through Friday, December 18, 2026 UTC","LAST_MODIFICATION_DATETIME":"202601131445","STATE":"PR","LEGAL":"HAZARDS"}},{"type":"Feature","id":"V_TFR_LOC.6/4508","geometry":{"type":"Polygon","coordinates":[[[-65.67472,18.18527],[-65.63611,17.87222],[-65.60055,17.87527],[-65.63861,18.17833],[-65.67472,18.18527]]]},"geometry_name":"SHAPE","properties":{"GID":233653,"CNS_LOCATION_ID":"ZSU","NOTAM_KEY":"6/4508-1-FDC-F","TITLE":"CEIBA, PR","LAST_MODIFICATION_DATETIME":"202603261535","STATE":"PR","LEGAL":"SECURITY"}},{"type":"Feature","id":"V_TFR_LOC.6/0708","geometry":{"type":"Polygon","coordinates":[[[-86.71368,36.35277],[-86.71337,36.34987],[-86.71244,36.34706],[-86.71092,36.34443],[-86.70885,36.34204],[-86.70631,36.33999],[-86.70337,36.33832],[-86.70011,36.33709],[-86.69663,36.33634],[-86.69305,36.33608],[-86.68947,36.33634],[-86.68600,36.33709],[-86.68274,36.33832],[-86.67979,36.33999],[-86.67725,36.34204],[-86.67518,36.34443],[-86.67366,36.34706],[-86.67273,36.34987],[-86.67242,36.35277],[-86.67273,36.35567],[-86.67366,36.35848],[-86.67518,36.36112],[-86.67724,36.36350],[-86.67979,36.36556],[-86.68273,36.36723],[-86.68599,36.36846],[-86.68947,36.36921],[-86.69305,36.36946],[-86.69663,36.36921],[-86.70011,36.36846],[-86.70337,36.36723],[-86.70632,36.36556],[-86.70886,36.36350],[-86.71092,36.36112],[-86.71244,36.35848],[-86.71337,36.35567],[-86.71368,36.35277]]]},"geometry_name":"SHAPE","properties":{"GID":233699,"CNS_LOCATION_ID":"ZME","NOTAM_KEY":"6/0708-1-FDC-F","TITLE":"Goodlettsville, TN, Saturday, August 1, 2026 through Sunday, August 1, 2027 UTC","LAST_MODIFICATION_DATETIME":"202607312258","STATE":"TN","LEGAL":"SECURITY"}},{"type":"Feature","id":"V_TFR_LOC.6/5114","geometry":{"type":"Polygon","coordinates":[[[-118.09926,33.64662],[-118.09773,33.63213],[-118.09321,33.61807],[-118.08585,33.60489],[-118.07586,33.59297],[-118.06356,33.58269],[-118.04931,33.57435],[-118.03355,33.56820],[-118.01676,33.56444],[-117.99944,33.56317],[-117.98212,33.56444],[-117.96533,33.56820],[-117.94957,33.57435],[-117.93532,33.58269],[-117.92302,33.59297],[-117.91303,33.60489],[-117.90567,33.61807],[-117.90115,33.63213],[-117.89962,33.64662],[-117.90112,33.66112],[-117.90561,33.67518],[-117.91295,33.68837],[-117.92292,33.70030],[-117.93523,33.71060],[-117.94949,33.71895],[-117.96527,33.72511],[-117.98209,33.72888],[-117.99944,33.73015],[-118.01679,33.72888],[-118.03361,33.72511],[-118.04939,33.71895],[-118.06365,33.71060],[-118.07595,33.70030],[-118.08593,33.68837],[-118.09327,33.67518],[-118.09776,33.66112],[-118.09926,33.64662]]]},"geometry_name":"SHAPE","properties":{"GID":233898,"CNS_LOCATION_ID":"ZLA","NOTAM_KEY":"6/5114-1-FDC-F","TITLE":"HUNTINGTON BEACH, CA, Tuesday, September 29, 2026 through Sunday, October 4, 2026 Local","LAST_MODIFICATION_DATETIME":"202609231858","STATE":"CA","LEGAL":"AIR SHOWS/SPORTS"}},{"type":"Feature","id":"V_TFR_LOC.5/2811","geometry":{"type":"Polygon","coordinates":[[[-73.99693,40.76266],[-73.99683,40.76120],[-73.99657,40.75976],[-73.99614,40.75834],[-73.99555,40.75696],[-73.99481,40.75562],[-73.99391,40.75433],[-73.99287,40.75311],[-73.99170,40.75196],[-73.99039,40.75090],[-73.98897,40.74992],[-73.98745,40.74905],[-73.98583,40.74827],[-73.98412,40.74761],[-73.98235,40.74706],[-73.98052,40.74663],[-73.97865,40.74633],[-73.97676,40.74615],[-73.97484,40.74610],[-73.97293,40.74617],[-73.97104,40.74637],[-73.96916,40.74666],[-73.95305,40.76472],[-73.95342,40.76578],[-73.95385,40.76720],[-73.95443,40.76858],[-73.95518,40.76992],[-73.95607,40.77121],[-73.95711,40.77243],[-73.95829,40.77358],[-73.95959,40.77465],[-73.96101,40.77562],[-73.96254,40.77650],[-73.96416,40.77727],[-73.96586,40.77794],[-73.96763,40.77848],[-73.96946,40.77891],[-73.97133,40.77922],[-73.97323,40.77940],[-73.97515,40.77945],[-73.97706,40.77938],[-73.97895,40.77918],[-73.98082,40.77885],[-73.98264,40.77840],[-73.98440,40.77784],[-73.98610,40.77716],[-73.98770,40.77637],[-73.98921,40.77547],[-73.99061,40.77448],[-73.99190,40.77340],[-73.99305,40.77224],[-73.99407,40.77101],[-73.99494,40.76971],[-73.99566,40.76837],[-73.99622,40.76698],[-73.99662,40.76555],[-73.99686,40.76411],[-73.99693,40.76266]]]},"geometry_name":"SHAPE","properties":{"GID":233996,"CNS_LOCATION_ID":"ZNY","NOTAM_KEY":"5/2811-1-FDC-F","TITLE":"NEW YORK, NY, Monday, October 20, 2025 through Tuesday, October 20, 2026 Local","LAST_MODIFICATION_DATETIME":"202510181454","STATE":"NY","LEGAL":"SECURITY"}},{"type":"Feature","id":"V_TFR_LOC.6/4143","geometry":{"type":"Polygon","coordinates":[[[144.84583,13.55916],[144.85527,13.53888],[144.86833,13.54472],[144.85888,13.56472],[144.84583,13.55916]]]},"geometry_name":"SHAPE","properties":{"GID":233949,"CNS_LOCATION_ID":"ZUA","NOTAM_KEY":"6/4143-1-FDC-F","TITLE":"ANDERSEN AFB, GU, Monday, March 9, 2026 through Tuesday, March 9, 2027 Local","LAST_MODIFICATION_DATETIME":"202603051857","STATE":"GU","LEGAL":"SECURITY"}},{"type":"Feature","id":"V_TFR_LOC.6/4143","geometry":{"type":"Polygon","coordinates":[[[144.99194,13.62277],[145.00111,13.6025],[145.01416,13.60805],[145.00472,13.62861],[144.99194,13.62277]]]},"geometry_name":"SHAPE","properties":{"GID":233950,"CNS_LOCATION_ID":"ZUA","NOTAM_KEY":"6/4143-1-FDC-F","TITLE":"ANDERSEN AFB, GU, Monday, March 9, 2026 through Tuesday, March 9, 2027 Local","LAST_MODIFICATION_DATETIME":"202603051857","STATE":"GU","LEGAL":"SECURITY"}},{"type":"Feature","id":"V_TFR_LOC.6/4143","geometry":{"type":"Polygon","coordinates":[[[144.61944,13.5875],[144.63722,13.51194],[144.74694,13.47666],[145.13527,13.64166],[145.13355,13.64295],[145.12620,13.66411],[145.11699,13.68456],[145.10599,13.70414],[145.09329,13.72272],[145.07898,13.74014],[145.06317,13.75627],[145.04597,13.77099],[145.02753,13.78419],[145.00798,13.79577],[144.98746,13.80564],[144.96615,13.81372],[144.94419,13.81995],[144.92176,13.82428],[144.89903,13.82669],[144.87617,13.82715],[144.85336,13.82566],[144.83077,13.82223],[144.80857,13.81689],[144.78693,13.80967],[144.76602,13.80064],[144.74600,13.78986],[144.72701,13.77741],[144.70921,13.76339],[144.69273,13.74791],[144.67770,13.73108],[144.66422,13.71304],[144.65241,13.69391],[144.64235,13.67385],[144.63412,13.65301],[144.62777,13.63154],[144.62337,13.60962],[144.61944,13.5875]]]},"geometry_name":"SHAPE","properties":{"GID":233948,"CNS_LOCATION_ID":"ZUA","NOTAM_KEY":"6/4143-1-FDC-F","TITLE":"ANDERSEN AFB, GU, Monday, March 9, 2026 through Tuesday, March 9, 2027 Local","LAST_MODIFICATION_DATETIME":"202603051857","STATE":"GU","LEGAL":"SECURITY"}},{"type":"Feature","id":"V_TFR_LOC.6/0299","geometry":{"type":"Polygon","coordinates":[[[-81.65777,24.4925],[-81.60361,24.37444],[-81.58694,24.38111],[-81.64111,24.49916],[-81.65777,24.4925]]]},"geometry_name":"SHAPE","properties":{"GID":233974,"CNS_LOCATION_ID":"ZMA","NOTAM_KEY":"6/0299-1-FDC-F","TITLE":"Key West, FL, Friday, June 26, 2026 through Saturday, October 17, 2026 Local","LAST_MODIFICATION_DATETIME":"202606241321","STATE":"FL","LEGAL":"SECURITY"}},{"type":"Feature","id":"V_TFR_LOC.6/2520","geometry":{"type":"Polygon","coordinates":[[[144.81797,13.55228],[144.81803,13.55092],[144.81820,13.54957],[144.81850,13.54825],[144.81888,13.54694],[144.83388,13.55222],[144.84472,13.56361],[144.84416,13.56410],[144.84306,13.56493],[144.84189,13.56567],[144.84066,13.56630],[144.83938,13.56683],[144.83806,13.56724],[144.83671,13.56754],[144.83533,13.56772],[144.83395,13.56779],[144.83256,13.56773],[144.83118,13.56756],[144.82982,13.56727],[144.82850,13.56687],[144.82721,13.56635],[144.82598,13.56573],[144.82481,13.56500],[144.82370,13.56418],[144.82268,13.56327],[144.82173,13.56227],[144.82088,13.56120],[144.82013,13.56005],[144.81949,13.55885],[144.81895,13.55760],[144.81853,13.55630],[144.81822,13.55498],[144.81804,13.55363],[144.81797,13.55228]]]},"geometry_name":"SHAPE","properties":{"GID":233803,"CNS_LOCATION_ID":"ZUA","NOTAM_KEY":"6/2520-1-FDC-F","TITLE":"S. FINEGAYAN, GU","LAST_MODIFICATION_DATETIME":"202605222301","STATE":"GU","LEGAL":"SECURITY"}},{"type":"Feature","id":"V_TFR_LOC.6/2727","geometry":{"type":"Polygon","coordinates":[[[-72.63905,42.09249],[-72.63871,42.08960],[-72.63770,42.08679],[-72.63605,42.08416],[-72.63381,42.08178],[-72.63105,42.07972],[-72.62785,42.07805],[-72.62432,42.07683],[-72.62055,42.07607],[-72.61666,42.07582],[-72.61278,42.07607],[-72.60901,42.07683],[-72.60547,42.07805],[-72.60228,42.07972],[-72.59952,42.08178],[-72.59728,42.08416],[-72.59563,42.08679],[-72.59462,42.08960],[-72.59428,42.09249],[-72.59461,42.09539],[-72.59562,42.09820],[-72.59727,42.10083],[-72.59951,42.10321],[-72.60227,42.10527],[-72.60547,42.10693],[-72.60900,42.10816],[-72.61277,42.10892],[-72.61666,42.10917],[-72.62055,42.10892],[-72.62432,42.10816],[-72.62786,42.10693],[-72.63105,42.10527],[-72.63381,42.10321],[-72.63605,42.10083],[-72.63770,42.09820],[-72.63871,42.09539],[-72.63905,42.09249]]]},"geometry_name":"SHAPE","properties":{"GID":233703,"CNS_LOCATION_ID":"ZBW","NOTAM_KEY":"6/2727-1-FDC-F","TITLE":"West Springfield, MA, Friday, September 18, 2026 through Monday, October 5, 2026 UTC","LAST_MODIFICATION_DATETIME":"202609141043","STATE":"MA","LEGAL":"UAS PUBLIC GATHERING"}},{"type":"Feature","id":"V_TFR_LOC.6/4364","geometry":{"type":"Polygon","coordinates":[[[-119.74166,37.48333],[-119.48333,37.48333],[-119.46666,37.70833],[-119.58333,37.70833],[-119.74166,37.65],[-119.74166,37.48333]]]},"geometry_name":"SHAPE","properties":{"GID":233833,"CNS_LOCATION_ID":"ZOA","NOTAM_KEY":"6/4364-1-FDC-F","TITLE":"2NM E WAWONA, CA, Monday, September 21, 2026 through Monday, October 5, 2026 UTC","LAST_MODIFICATION_DATETIME":"202609212254","STATE":"CA","LEGAL":"HAZARDS"}},{"type":"Feature","id":"V_TFR_LOC.6/2657","geometry":{"type":"Polygon","coordinates":[[[-115.27944,32.68138],[-114.79444,32.715],[-114.79555,32.72861],[-114.91361,32.72],[-114.91972,32.71],[-115.27944,32.69583],[-115.27944,32.68138]]]},"geometry_name":"SHAPE","properties":{"GID":233834,"CNS_LOCATION_ID":"ZLA","NOTAM_KEY":"6/2657-1-FDC-F","TITLE":"Calexico, CA, Saturday, July 4, 2026 through Saturday, January 2, 2027 Local","LAST_MODIFICATION_DATETIME":"202607021404","STATE":"CA","LEGAL":"SECURITY"}},{"type":"Feature","id":"V_TFR_LOC.6/5082","geometry":{"type":"Polygon","coordinates":[[[-97.20207,25.99721],[-97.20137,25.98995],[-97.19928,25.98292],[-97.19587,25.97632],[-97.19125,25.97035],[-97.18555,25.96520],[-97.17894,25.96102],[-97.17164,25.95795],[-97.16386,25.95606],[-97.15583,25.95543],[-97.14780,25.95606],[-97.14002,25.95795],[-97.13271,25.96102],[-97.12611,25.96520],[-97.12041,25.97035],[-97.11579,25.97632],[-97.11238,25.98292],[-97.11029,25.98995],[-97.10958,25.99721],[-97.11028,26.00447],[-97.11237,26.01150],[-97.11577,26.01811],[-97.12039,26.02408],[-97.12609,26.02923],[-97.13270,26.03341],[-97.14001,26.03649],[-97.14780,26.03837],[-97.15583,26.03901],[-97.16386,26.03837],[-97.17165,26.03649],[-97.17896,26.03341],[-97.18556,26.02923],[-97.19126,26.02408],[-97.19588,26.01811],[-97.19929,26.01150],[-97.20137,26.00447],[-97.20207,25.99721]]]},"geometry_name":"SHAPE","properties":{"GID":233897,"CNS_LOCATION_ID":"ZHU","NOTAM_KEY":"6/5082-1-FDC-F","TITLE":"BROWNSVILLE, TX, Wednesday, September 23, 2026 through Wednesday, October 7, 2026 UTC","LAST_MODIFICATION_DATETIME":"202609231822","STATE":"TX","LEGAL":"HAZARDS"}}],"totalFeatures":80,"numberMatched":80,"numberReturned":80,"timeStamp":"2026-10-03T20:00:01.588Z","crs":{"type":"name","properties":{"name":"urn:ogc:def:crs:OGC:1.3:CRS84"}}}
